{"type": "FeatureCollection", "features": [{"type": "Feature", "properties": {"id": "drawn_0000", "drawings": 2, "nearest_mapped_bay_m": 6.12, "source": "hand-drawn from drone imagery"}, "geometry": {"type": "Polygon", "coordinates": [[[23.330992981479852, 42.67533049566301], [23.331002262024796, 42.675314570508746], [23.330956065156016, 42.67530001827261], [23.330946784611072, 42.675315943426874], [23.330992981479852, 42.67533049566301]]]}}, {"type": "Feature", "properties": {"id": "drawn_0001", "drawings": 2, "nearest_mapped_bay_m": 6.31, "source": "hand-drawn from drone imagery"}, "geometry": {"type": "Polygon", "coordinates": [[[23.331100599307913, 42.67536761830856], [23.331110573380094, 42.675351267926885], [23.331065870838707, 42.67533638764378], [23.331055896766525, 42.67535273802545], [23.331100599307913, 42.67536761830856]]]}}, {"type": "Feature", "properties": {"id": "drawn_0002", "drawings": 2, "nearest_mapped_bay_m": 6.57, "source": "hand-drawn from drone imagery"}, "geometry": {"type": "Polygon", "coordinates": [[[23.33131644360822, 42.67544091823371], [23.331325838533797, 42.67542620966473], [23.3312752390794, 42.67540873194843], [23.33126584415382, 42.67542344051741], [23.33131644360822, 42.67544091823371]]]}}, {"type": "Feature", "properties": {"id": "drawn_0003", "drawings": 2, "nearest_mapped_bay_m": 7.63, "source": "hand-drawn from drone imagery"}, "geometry": {"type": "Polygon", "coordinates": [[[23.331312321800286, 42.675354721842915], [23.331323513642968, 42.67533720141728], [23.33127850710022, 42.675321648929234], [23.331267315257538, 42.67533916935487], [23.331312321800286, 42.675354721842915]]]}}, {"type": "Feature", "properties": {"id": "drawn_0004", "drawings": 2, "nearest_mapped_bay_m": 15.93, "source": "hand-drawn from drone imagery"}, "geometry": {"type": "Polygon", "coordinates": [[[23.33120874669092, 42.67531390168963], [23.33122133807908, 42.67529422429657], [23.331177814278885, 42.67527916134142], [23.33116522289073, 42.67529883873448], [23.33120874669092, 42.67531390168963]]]}}, {"type": "Feature", "properties": {"id": "drawn_0005", "drawings": 2, "nearest_mapped_bay_m": 7.07, "source": "hand-drawn from drone imagery"}, "geometry": {"type": "Polygon", "coordinates": [[[23.33153123633827, 42.675420045927346], [23.33154267036241, 42.67540208473977], [23.331496180128642, 42.67538605843881], [23.331484746104504, 42.675404019626384], [23.33153123633827, 42.675420045927346]]]}}, {"type": "Feature", "properties": {"id": "drawn_0006", "drawings": 2, "nearest_mapped_bay_m": 11.66, "source": "hand-drawn from drone imagery"}, "geometry": {"type": "Polygon", "coordinates": [[[23.329978386847973, 42.675051294149846], [23.330007096766813, 42.67506087415448], [23.330027716670536, 42.67502747155685], [23.329999006751695, 42.67501789155222], [23.329978386847973, 42.675051294149846]]]}}, {"type": "Feature", "properties": {"id": "drawn_0007", "drawings": 2, "nearest_mapped_bay_m": 7.47, "source": "hand-drawn from drone imagery"}, "geometry": {"type": "Polygon", "coordinates": [[[23.32993546339047, 42.67512265397753], [23.329961761226606, 42.67513142911177], [23.329978188596044, 42.67510481808493], [23.329951890759908, 42.675096042950685], [23.32993546339047, 42.67512265397753]]]}}, {"type": "Feature", "properties": {"id": "drawn_0008", "drawings": 1, "nearest_mapped_bay_m": 7.63, "source": "hand-drawn from drone imagery"}, "geometry": {"type": "Polygon", "coordinates": [[[23.33043022273378, 42.675143387813506], [23.330440799543027, 42.675124505180676], [23.330389979731063, 42.67510911823076], [23.330379402921814, 42.67512800086358], [23.33043022273378, 42.675143387813506]]]}}, {"type": "Feature", "properties": {"id": "drawn_0009", "drawings": 1, "nearest_mapped_bay_m": 6.32, "source": "hand-drawn from drone imagery"}, "geometry": {"type": "Polygon", "coordinates": [[[23.330562275803665, 42.675101608738316], [23.330573527701596, 42.6750815208789], [23.330547844549237, 42.67507374467186], [23.330536592651306, 42.67509383253129], [23.330562275803665, 42.675101608738316]]]}}, {"type": "Feature", "properties": {"id": "drawn_0010", "drawings": 1, "nearest_mapped_bay_m": 14.69, "source": "hand-drawn from drone imagery"}, "geometry": {"type": "Polygon", "coordinates": [[[23.330860541671196, 42.67519951929884], [23.330872843072733, 42.67517843601222], [23.330829231174206, 42.67516468139091], [23.330816929772666, 42.675185764677536], [23.330860541671196, 42.67519951929884]]]}}, {"type": "Feature", "properties": {"id": "drawn_0011", "drawings": 1, "nearest_mapped_bay_m": 12.35, "source": "hand-drawn from drone imagery"}, "geometry": {"type": "Polygon", "coordinates": [[[23.33065720662661, 42.67522432018188], [23.330667714019427, 42.67520631163434], [23.33061753041421, 42.67519048438286], [23.330607023021393, 42.675208492930395], [23.33065720662661, 42.67522432018188]]]}}, {"type": "Feature", "properties": {"id": "drawn_0012", "drawings": 1, "nearest_mapped_bay_m": 13.15, "source": "hand-drawn from drone imagery"}, "geometry": {"type": "Polygon", "coordinates": [[[23.330709865919044, 42.675238328252235], [23.330718066853404, 42.67522427272782], [23.33067146789319, 42.6752095760264], [23.33066326695883, 42.675223631550814], [23.330709865919044, 42.675238328252235]]]}}, {"type": "Feature", "properties": {"id": "drawn_0013", "drawings": 1, "nearest_mapped_bay_m": 9.09, "source": "hand-drawn from drone imagery"}, "geometry": {"type": "Polygon", "coordinates": [[[23.330765682791476, 42.67525541176938], [23.33077439617557, 42.67524047796092], [23.330722420390334, 42.67522408547934], [23.33071370700624, 42.6752390192878], [23.330765682791476, 42.67525541176938]]]}}, {"type": "Feature", "properties": {"id": "drawn_0014", "drawings": 1, "nearest_mapped_bay_m": 14.45, "source": "hand-drawn from drone imagery"}, "geometry": {"type": "Polygon", "coordinates": [[[23.330805759889852, 42.675276614946945], [23.33081497649841, 42.67526079950571], [23.330785099689177, 42.67525138816692], [23.330775883080616, 42.67526720360816], [23.330805759889852, 42.675276614946945]]]}}, {"type": "Feature", "properties": {"id": "drawn_0015", "drawings": 1, "nearest_mapped_bay_m": 15.11, "source": "hand-drawn from drone imagery"}, "geometry": {"type": "Polygon", "coordinates": [[[23.331018274829937, 42.675252733397414], [23.331028342693347, 42.67523545722678], [23.330990623157557, 42.675223575391364], [23.330980555294147, 42.675240851561995], [23.331018274829937, 42.675252733397414]]]}}, {"type": "Feature", "properties": {"id": "drawn_0016", "drawings": 1, "nearest_mapped_bay_m": 6.14, "source": "hand-drawn from drone imagery"}, "geometry": {"type": "Polygon", "coordinates": [[[23.33104246490048, 42.67534926860021], [23.331053729644278, 42.67532993861648], [23.330999353862868, 42.675312809983474], [23.330988089119074, 42.67533213996721], [23.33104246490048, 42.67534926860021]]]}}, {"type": "Feature", "properties": {"id": "drawn_0017", "drawings": 1, "nearest_mapped_bay_m": 12.74, "source": "hand-drawn from drone imagery"}, "geometry": {"type": "Polygon", "coordinates": [[[23.33163379751967, 42.6754559842648], [23.33164640457544, 42.6754371076245], [23.33160614164029, 42.67542257239918], [23.33159353458452, 42.67544144903948], [23.33163379751967, 42.6754559842648]]]}}, {"type": "Feature", "properties": {"id": "drawn_0018", "drawings": 1, "nearest_mapped_bay_m": 8.37, "source": "hand-drawn from drone imagery"}, "geometry": {"type": "Polygon", "coordinates": [[[23.33167027549561, 42.675558536234114], [23.331685300122825, 42.67553689858143], [23.331639135102506, 42.67551957115938], [23.33162411047529, 42.675541208812064], [23.33167027549561, 42.675558536234114]]]}}, {"type": "Feature", "properties": {"id": "drawn_0019", "drawings": 1, "nearest_mapped_bay_m": 18.28, "source": "hand-drawn from drone imagery"}, "geometry": {"type": "Polygon", "coordinates": [[[23.33170779494978, 42.67546992986277], [23.33172193571661, 42.675449565097836], [23.331691640188684, 42.675438194077195], [23.33167749942185, 42.67545855884214], [23.33170779494978, 42.67546992986277]]]}}, {"type": "Feature", "properties": {"id": "drawn_0020", "drawings": 1, "nearest_mapped_bay_m": 17.82, "source": "hand-drawn from drone imagery"}, "geometry": {"type": "Polygon", "coordinates": [[[23.331756797157784, 42.675492600677174], [23.331772116321854, 42.675470538848494], [23.331727682403777, 42.675453861172485], [23.33171236323971, 42.675475923001166], [23.331756797157784, 42.675492600677174]]]}}, {"type": "Feature", "properties": {"id": "drawn_0021", "drawings": 1, "nearest_mapped_bay_m": 17.28, "source": "hand-drawn from drone imagery"}, "geometry": {"type": "Polygon", "coordinates": [[[23.331805810959374, 42.67551420661694], [23.331819362402676, 42.67549469056376], [23.33177550570219, 42.67547822953864], [23.331761954258884, 42.67549774559182], [23.331805810959374, 42.67551420661694]]]}}, {"type": "Feature", "properties": {"id": "drawn_0022", "drawings": 1, "nearest_mapped_bay_m": 12.85, "source": "hand-drawn from drone imagery"}, "geometry": {"type": "Polygon", "coordinates": [[[23.331855377578158, 42.67553815895505], [23.331868339947754, 42.67551949125386], [23.331822174927435, 42.67550216383181], [23.331809212557836, 42.675520831533], [23.331855377578158, 42.67553815895505]]]}}, {"type": "Feature", "properties": {"id": "drawn_0023", "drawings": 1, "nearest_mapped_bay_m": 8.5, "source": "hand-drawn from drone imagery"}, "geometry": {"type": "Polygon", "coordinates": [[[23.331902648021213, 42.675560180228224], [23.331917377861753, 42.6755389671113], [23.331872943943676, 42.675522289435285], [23.331858214103136, 42.67554350255221], [23.331902648021213, 42.675560180228224]]]}}, {"type": "Feature", "properties": {"id": "drawn_0024", "drawings": 1, "nearest_mapped_bay_m": 8.66, "source": "hand-drawn from drone imagery"}, "geometry": {"type": "Polygon", "coordinates": [[[23.33203359161533, 42.675681740042094], [23.33204550659392, 42.675665286878], [23.331999601875445, 42.67564731768685], [23.331987686896852, 42.67566377085095], [23.33203359161533, 42.675681740042094]]]}}, {"type": "Feature", "properties": {"id": "drawn_0025", "drawings": 1, "nearest_mapped_bay_m": 9.18, "source": "hand-drawn from drone imagery"}, "geometry": {"type": "Polygon", "coordinates": [[[23.331982522728453, 42.67566174913138], [23.331994743152887, 42.67564487418301], [23.331948838434414, 42.67562690499186], [23.331936618009976, 42.67564377994023], [23.331982522728453, 42.67566174913138]]]}}, {"type": "Feature", "properties": {"id": "drawn_0026", "drawings": 1, "nearest_mapped_bay_m": 9.01, "source": "hand-drawn from drone imagery"}, "geometry": {"type": "Polygon", "coordinates": [[[23.331925261232104, 42.675644207676406], [23.331939620295582, 42.67562437952263], [23.331894863229284, 42.67560685957466], [23.331880504165802, 42.67562668772843], [23.331925261232104, 42.675644207676406]]]}}, {"type": "Feature", "properties": {"id": "drawn_0027", "drawings": 1, "nearest_mapped_bay_m": 18.51, "source": "hand-drawn from drone imagery"}, "geometry": {"type": "Polygon", "coordinates": [[[23.33193036870657, 42.67554766067636], [23.331944727770047, 42.67552783252259], [23.331901979163483, 42.675511098776944], [23.3318876201, 42.67553092693072], [23.33193036870657, 42.67554766067636]]]}}, {"type": "Feature", "properties": {"id": "drawn_0028", "drawings": 1, "nearest_mapped_bay_m": 18.56, "source": "hand-drawn from drone imagery"}, "geometry": {"type": "Polygon", "coordinates": [[[23.331983464647088, 42.67556790348869], [23.33199843460225, 42.67554723176637], [23.331952529883775, 42.675529262575225], [23.331937559928612, 42.67554993429754], [23.331983464647088, 42.67556790348869]]]}}, {"type": "Feature", "properties": {"id": "drawn_0029", "drawings": 1, "nearest_mapped_bay_m": 17.96, "source": "hand-drawn from drone imagery"}, "geometry": {"type": "Polygon", "coordinates": [[[23.332036985625837, 42.67559264416618], [23.332050122646873, 42.67557450350725], [23.332002496586988, 42.675555860504915], [23.331989359565952, 42.67557400116385], [23.332036985625837, 42.67559264416618]]]}}, {"type": "Feature", "properties": {"id": "drawn_0030", "drawings": 1, "nearest_mapped_bay_m": 13.16, "source": "hand-drawn from drone imagery"}, "geometry": {"type": "Polygon", "coordinates": [[[23.33209348704672, 42.67561530273745], [23.332106624067755, 42.67559716207851], [23.332054981362113, 42.67557694677865], [23.332041844341077, 42.675595087437586], [23.33209348704672, 42.67561530273745]]]}}, {"type": "Feature", "properties": {"id": "drawn_0031", "drawings": 1, "nearest_mapped_bay_m": 8.23, "source": "hand-drawn from drone imagery"}, "geometry": {"type": "Polygon", "coordinates": [[[23.332144407016205, 42.67563956707061], [23.332157849483085, 42.67562100462741], [23.332115387721135, 42.675604383165776], [23.332101945254255, 42.67562294560898], [23.332144407016205, 42.67563956707061]]]}}, {"type": "Feature", "properties": {"id": "drawn_0032", "drawings": 1, "nearest_mapped_bay_m": 15.47, "source": "hand-drawn from drone imagery"}, "geometry": {"type": "Polygon", "coordinates": [[[23.33143554279609, 42.675377083411504], [23.331426540406568, 42.67539192427057], [23.331473442911292, 42.675407303060275], [23.33148244530081, 42.675392462201216], [23.33143554279609, 42.675377083411504]]]}}, {"type": "Feature", "properties": {"id": "drawn_0033", "drawings": 1, "nearest_mapped_bay_m": 7.9, "source": "hand-drawn from drone imagery"}, "geometry": {"type": "Polygon", "coordinates": [[[23.33152116170652, 42.67548470097273], [23.33151057052795, 42.67550216102466], [23.331564597700364, 42.67551987591063], [23.331575188878933, 42.6755024158587], [23.33152116170652, 42.67548470097273]]]}}, {"type": "Feature", "properties": {"id": "drawn_0034", "drawings": 1, "nearest_mapped_bay_m": 22.87, "source": "hand-drawn from drone imagery"}, "geometry": {"type": "Polygon", "coordinates": [[[23.330750336003653, 42.67515697622978], [23.33073748183611, 42.67517682654513], [23.33077944842677, 42.67519151606489], [23.33079230259432, 42.67517166574953], [23.330750336003653, 42.67515697622978]]]}}, {"type": "Feature", "properties": {"id": "drawn_0035", "drawings": 1, "nearest_mapped_bay_m": 18.28, "source": "hand-drawn from drone imagery"}, "geometry": {"type": "Polygon", "coordinates": [[[23.330682177342897, 42.67522998830225], [23.330670161320633, 42.67524854429435], [23.330717117034652, 42.67526498015148], [23.33072913305692, 42.67524642415939], [23.330682177342897, 42.67522998830225]]]}}, {"type": "Feature", "properties": {"id": "drawn_0036", "drawings": 1, "nearest_mapped_bay_m": 13.44, "source": "hand-drawn from drone imagery"}, "geometry": {"type": "Polygon", "coordinates": [[[23.33062580266262, 42.67520919662023], [23.330612389494593, 42.6752299101837], [23.330665214567876, 42.67524840048623], [23.330678627735903, 42.67522768692276], [23.33062580266262, 42.67520919662023]]]}}, {"type": "Feature", "properties": {"id": "drawn_0037", "drawings": 1, "nearest_mapped_bay_m": 8.55, "source": "hand-drawn from drone imagery"}, "geometry": {"type": "Polygon", "coordinates": [[[23.33057065767558, 42.67519095297083], [23.33055696512579, 42.67521209797539], [23.330609203375136, 42.67523038287258], [23.330622895924925, 42.67520923786802], [23.33057065767558, 42.67519095297083]]]}}, {"type": "Feature", "properties": {"id": "drawn_0038", "drawings": 1, "nearest_mapped_bay_m": 19.75, "source": "hand-drawn from drone imagery"}, "geometry": {"type": "Polygon", "coordinates": [[[23.330504798664375, 42.67508585249945], [23.33049362102435, 42.675103113802344], [23.33053353345126, 42.675117084305406], [23.330544711091285, 42.67509982300252], [23.330504798664375, 42.67508585249945]]]}}, {"type": "Feature", "properties": {"id": "drawn_0039", "drawings": 1, "nearest_mapped_bay_m": 23.48, "source": "hand-drawn from drone imagery"}, "geometry": {"type": "Polygon", "coordinates": [[[23.33055169807456, 42.67510015126862], [23.330539682052297, 42.675118707260715], [23.330580768407053, 42.67513308867246], [23.33059278442932, 42.67511453268037], [23.33055169807456, 42.67510015126862]]]}}, {"type": "Feature", "properties": {"id": "drawn_0040", "drawings": 1, "nearest_mapped_bay_m": 28.08, "source": "hand-drawn from drone imagery"}, "geometry": {"type": "Polygon", "coordinates": [[[23.330604690481888, 42.675113936150126], [23.330592115696103, 42.67513335502439], [23.33063965823406, 42.675149996286876], [23.330652233019848, 42.6751305774126], [23.330604690481888, 42.675113936150126]]]}}, {"type": "Feature", "properties": {"id": "drawn_0041", "drawings": 1, "nearest_mapped_bay_m": 33.6, "source": "hand-drawn from drone imagery"}, "geometry": {"type": "Polygon", "coordinates": [[[23.330667912274276, 42.67512971346486], [23.330654499106245, 42.67515042702833], [23.330708498107377, 42.67516932823954], [23.330721911275404, 42.67514861467607], [23.330667912274276, 42.67512971346486]]]}}, {"type": "Feature", "properties": {"id": "drawn_0042", "drawings": 1, "nearest_mapped_bay_m": 11.55, "source": "hand-drawn from drone imagery"}, "geometry": {"type": "Polygon", "coordinates": [[[23.33001058141187, 42.67500736824133], [23.33003781124651, 42.675016454367395], [23.330056080444557, 42.674986859725266], [23.330028850609917, 42.6749777735992], [23.33001058141187, 42.67500736824133]]]}}, {"type": "Feature", "properties": {"id": "drawn_0043", "drawings": 1, "nearest_mapped_bay_m": 6.69, "source": "hand-drawn from drone imagery"}, "geometry": {"type": "Polygon", "coordinates": [[[23.329868746474197, 42.67523339778996], [23.329893016642416, 42.6752414963264], [23.329904166186942, 42.67522343495451], [23.32987989601872, 42.67521533641807], [23.329868746474197, 42.67523339778996]]]}}, {"type": "Feature", "properties": {"id": "drawn_0044", "drawings": 1, "nearest_mapped_bay_m": 9.49, "source": "hand-drawn from drone imagery"}, "geometry": {"type": "Polygon", "coordinates": [[[23.329852625158033, 42.67526455464785], [23.329873274994156, 42.675271445141924], [23.329893357890647, 42.67523891245313], [23.329872708054527, 42.67523202195906], [23.329852625158033, 42.67526455464785]]]}}, {"type": "Feature", "properties": {"id": "drawn_0045", "drawings": 1, "nearest_mapped_bay_m": 7.46, "source": "hand-drawn from drone imagery"}, "geometry": {"type": "Polygon", "coordinates": [[[23.329833563330435, 42.6753000437249], [23.329852443066244, 42.67530634356704], [23.329869580450815, 42.67527858237238], [23.329850700715003, 42.67527228253024], [23.329833563330435, 42.6753000437249]]]}}, {"type": "Feature", "properties": {"id": "drawn_0046", "drawings": 1, "nearest_mapped_bay_m": 21.12, "source": "hand-drawn from drone imagery"}, "geometry": {"type": "Polygon", "coordinates": [[[23.329790254388946, 42.67535860243271], [23.329816834082052, 42.675364965622464], [23.329830722017377, 42.67533360821595], [23.32980414232427, 42.675327245026196], [23.329790254388946, 42.67535860243271]]]}}, {"type": "Feature", "properties": {"id": "drawn_0047", "drawings": 1, "nearest_mapped_bay_m": 16.63, "source": "hand-drawn from drone imagery"}, "geometry": {"type": "Polygon", "coordinates": [[[23.329805321385802, 42.67532149554207], [23.32983375507383, 42.675328302579], [23.329849152542295, 42.675293536815275], [23.32982071885427, 42.67528672977836], [23.329805321385802, 42.67532149554207]]]}}, {"type": "Feature", "properties": {"id": "drawn_0048", "drawings": 1, "nearest_mapped_bay_m": 9.35, "source": "hand-drawn from drone imagery"}, "geometry": {"type": "Polygon", "coordinates": [[[23.32970563295411, 42.675546071804824], [23.32972719573647, 42.67555123394403], [23.32974163932057, 42.67551862194465], [23.329720076538205, 42.675513459805444], [23.32970563295411, 42.675546071804824]]]}}, {"type": "Feature", "properties": {"id": "drawn_0049", "drawings": 1, "nearest_mapped_bay_m": 11.34, "source": "hand-drawn from drone imagery"}, "geometry": {"type": "Polygon", "coordinates": [[[23.329767994838992, 42.675662197338404], [23.32981050393613, 42.675672374034214], [23.329815719656228, 42.675660597520896], [23.329773210559086, 42.675650420825086], [23.329767994838992, 42.675662197338404]]]}}, {"type": "Feature", "properties": {"id": "drawn_0050", "drawings": 1, "nearest_mapped_bay_m": 8.34, "source": "hand-drawn from drone imagery"}, "geometry": {"type": "Polygon", "coordinates": [[[23.329610102273374, 42.67580834089539], [23.329629279990478, 42.67581289300044], [23.329644259385475, 42.67577878107229], [23.32962508166837, 42.675774228967235], [23.329610102273374, 42.67580834089539]]]}}, {"type": "Feature", "properties": {"id": "drawn_0051", "drawings": 1, "nearest_mapped_bay_m": 12.87, "source": "hand-drawn from drone imagery"}, "geometry": {"type": "Polygon", "coordinates": [[[23.329752925638566, 42.675724217558304], [23.329809220739364, 42.67573758000448], [23.32981601140224, 42.67572211592171], [23.329759716301442, 42.675708753475526], [23.329752925638566, 42.675724217558304]]]}}, {"type": "Feature", "properties": {"id": "drawn_0052", "drawings": 1, "nearest_mapped_bay_m": 14.25, "source": "hand-drawn from drone imagery"}, "geometry": {"type": "Polygon", "coordinates": [[[23.329814369262486, 42.67573829983225], [23.329857054725874, 42.67574843183661], [23.329863246243438, 42.67573433216154], [23.32982056078005, 42.67572420015718], [23.329814369262486, 42.67573829983225]]]}}, {"type": "Feature", "properties": {"id": "drawn_0053", "drawings": 1, "nearest_mapped_bay_m": 14.41, "source": "hand-drawn from drone imagery"}, "geometry": {"type": "Polygon", "coordinates": [[[23.329880163272495, 42.675754921475644], [23.329928292485928, 42.67576634563183], [23.32993448400349, 42.67575224595675], [23.32988635479006, 42.67574082180057], [23.329880163272495, 42.675754921475644]]]}}, {"type": "Feature", "properties": {"id": "drawn_0054", "drawings": 1, "nearest_mapped_bay_m": 6.18, "source": "hand-drawn from drone imagery"}, "geometry": {"type": "Polygon", "coordinates": [[[23.329546805174875, 42.67566625170293], [23.32960433780158, 42.67567990789355], [23.329610129857176, 42.67566671789593], [23.32955259723047, 42.675653061705304], [23.329546805174875, 42.67566625170293]]]}}, {"type": "Feature", "properties": {"id": "drawn_0055", "drawings": 1, "nearest_mapped_bay_m": 11.45, "source": "hand-drawn from drone imagery"}, "geometry": {"type": "Polygon", "coordinates": [[[23.32948079207854, 42.67564857368059], [23.32954203623378, 42.675663110855524], [23.32954742882741, 42.67565083053535], [23.329486184672174, 42.67563629336042], [23.32948079207854, 42.67564857368059]]]}}, {"type": "Feature", "properties": {"id": "drawn_0056", "drawings": 1, "nearest_mapped_bay_m": 13.95, "source": "hand-drawn from drone imagery"}, "geometry": {"type": "Polygon", "coordinates": [[[23.329408887938715, 42.67562999946289], [23.329447985154026, 42.67563927974533], [23.329453777209622, 42.67562608974771], [23.32941467999431, 42.675616809465275], [23.329408887938715, 42.67562999946289]]]}}, {"type": "Feature", "properties": {"id": "drawn_0057", "drawings": 1, "nearest_mapped_bay_m": 11.02, "source": "hand-drawn from drone imagery"}, "geometry": {"type": "Polygon", "coordinates": [[[23.329776879137714, 42.67572529894027], [23.329750138048297, 42.67576355766884], [23.32977153124202, 42.67577164027746], [23.329798272331438, 42.675733381548895], [23.329776879137714, 42.67572529894027]]]}}, {"type": "Feature", "properties": {"id": "drawn_0058", "drawings": 1, "nearest_mapped_bay_m": 13.06, "source": "hand-drawn from drone imagery"}, "geometry": {"type": "Polygon", "coordinates": [[[23.329801981954795, 42.675679973205], [23.329774943803752, 42.675718656942436], [23.32979980627584, 42.675728050286594], [23.329826844426883, 42.675689366549165], [23.329801981954795, 42.675679973205]]]}}, {"type": "Feature", "properties": {"id": "drawn_0059", "drawings": 1, "nearest_mapped_bay_m": 13.85, "source": "hand-drawn from drone imagery"}, "geometry": {"type": "Polygon", "coordinates": [[[23.329824330508636, 42.675643816075294], [23.329801749037856, 42.675676123598286], [23.329824298657698, 42.67568464311876], [23.329846880128482, 42.675652335595764], [23.329824330508636, 42.675643816075294]]]}}, {"type": "Feature", "properties": {"id": "drawn_0060", "drawings": 1, "nearest_mapped_bay_m": 7.7, "source": "hand-drawn from drone imagery"}, "geometry": {"type": "Polygon", "coordinates": [[[23.32970164312764, 42.67587581270433], [23.329665691112147, 42.6759272495916], [23.329694600937756, 42.67593817207512], [23.329730552953244, 42.675886735187845], [23.32970164312764, 42.67587581270433]]]}}, {"type": "Feature", "properties": {"id": "drawn_0061", "drawings": 1, "nearest_mapped_bay_m": 7.56, "source": "hand-drawn from drone imagery"}, "geometry": {"type": "Polygon", "coordinates": [[[23.32963489300701, 42.67579041024993], [23.3296236023976, 42.67580656383119], [23.32966985806341, 42.675824039783976], [23.329681148672822, 42.67580788620272], [23.32963489300701, 42.67579041024993]]]}}, {"type": "Feature", "properties": {"id": "drawn_0062", "drawings": 1, "nearest_mapped_bay_m": 8.3, "source": "hand-drawn from drone imagery"}, "geometry": {"type": "Polygon", "coordinates": [[[23.32958313649993, 42.67577139325481], [23.32957392557386, 42.67578457141352], [23.329620181239672, 42.675802047366304], [23.329629392165742, 42.675788869207594], [23.32958313649993, 42.67577139325481]]]}}, {"type": "Feature", "properties": {"id": "drawn_0063", "drawings": 1, "nearest_mapped_bay_m": 10.04, "source": "hand-drawn from drone imagery"}, "geometry": {"type": "Polygon", "coordinates": [[[23.329673111251203, 42.67593650128567], [23.329643696103236, 42.675978585814995], [23.329661909331982, 42.67598546699419], [23.32969132447995, 42.67594338246487], [23.329673111251203, 42.67593650128567]]]}}, {"type": "Feature", "properties": {"id": "drawn_0064", "drawings": 1, "nearest_mapped_bay_m": 6.19, "source": "hand-drawn from drone imagery"}, "geometry": {"type": "Polygon", "coordinates": [[[23.32934955421915, 42.67570988764803], [23.329338341882167, 42.67572819029735], [23.32937686894443, 42.67574094808711], [23.32938808128141, 42.675722645437794], [23.32934955421915, 42.67570988764803]]]}}, {"type": "Feature", "properties": {"id": "drawn_0065", "drawings": 1, "nearest_mapped_bay_m": 10.49, "source": "hand-drawn from drone imagery"}, "geometry": {"type": "Polygon", "coordinates": [[[23.328840352338943, 42.67557228139852], [23.328852121421672, 42.67555796501489], [23.328807057245847, 42.67553794021966], [23.32879528816312, 42.675552256603304], [23.328840352338943, 42.67557228139852]]]}}, {"type": "Feature", "properties": {"id": "drawn_0066", "drawings": 1, "nearest_mapped_bay_m": 6.44, "source": "hand-drawn from drone imagery"}, "geometry": {"type": "Polygon", "coordinates": [[[23.328881638490937, 42.675589510707304], [23.328893407573666, 42.67557519432366], [23.32885668848781, 42.67555887776708], [23.328844919405086, 42.675573194150715], [23.328881638490937, 42.675589510707304]]]}}, {"type": "Feature", "properties": {"id": "drawn_0067", "drawings": 1, "nearest_mapped_bay_m": 8.38, "source": "hand-drawn from drone imagery"}, "geometry": {"type": "Polygon", "coordinates": [[[23.328711994587557, 42.675497846626264], [23.328721745982893, 42.675485984638385], [23.328673621728445, 42.675464600061325], [23.32866387033311, 42.675476462049204], [23.328711994587557, 42.675497846626264]]]}}, {"type": "Feature", "properties": {"id": "drawn_0068", "drawings": 1, "nearest_mapped_bay_m": 9.35, "source": "hand-drawn from drone imagery"}, "geometry": {"type": "Polygon", "coordinates": [[[23.32876467674009, 42.67550952884328], [23.328776782009, 42.6754948035093], [23.328733943031274, 42.67547576750696], [23.328721837762366, 42.67549049284094], [23.32876467674009, 42.67550952884328]]]}}, {"type": "Feature", "properties": {"id": "drawn_0069", "drawings": 1, "nearest_mapped_bay_m": 18.01, "source": "hand-drawn from drone imagery"}, "geometry": {"type": "Polygon", "coordinates": [[[23.328895693956422, 42.67553033114262], [23.3289084715977, 42.67551478790796], [23.32887675967198, 42.67550069634172], [23.328863982030704, 42.675516239576375], [23.328895693956422, 42.67553033114262]]]}}]}