{"type": "FeatureCollection", "features": [{"type": "Feature", "properties": {"id": "drawn_0000", "drawings": 1, "nearest_mapped_bay_m": 7.94, "source": "hand-drawn from drone imagery"}, "geometry": {"type": "Polygon", "coordinates": [[[23.33038050628022, 42.675109965423324], [23.330370345217222, 42.675128942578766], [23.330424561803394, 42.67514260127731], [23.330435665674393, 42.675125287934435], [23.33038050628022, 42.675109965423324]]]}}, {"type": "Feature", "properties": {"id": "drawn_0001", "drawings": 1, "nearest_mapped_bay_m": 6.88, "source": "hand-drawn from drone imagery"}, "geometry": {"type": "Polygon", "coordinates": [[[23.33077517291623, 42.675257866640045], [23.330783263595706, 42.67524328694087], [23.33074741823894, 42.67523198178506], [23.330739175819726, 42.675248960969434], [23.33077517291623, 42.675257866640045]]]}}, {"type": "Feature", "properties": {"id": "drawn_0002", "drawings": 1, "nearest_mapped_bay_m": 7.33, "source": "hand-drawn from drone imagery"}, "geometry": {"type": "Polygon", "coordinates": [[[23.330733302424132, 42.67524619082421], [23.330692285534035, 42.67523447830552], [23.330701883732182, 42.67521731488057], [23.330743201138144, 42.675230651766725], [23.330733302424132, 42.67524619082421]]]}}, {"type": "Feature", "properties": {"id": "drawn_0003", "drawings": 1, "nearest_mapped_bay_m": 7.85, "source": "hand-drawn from drone imagery"}, "geometry": {"type": "Polygon", "coordinates": [[[23.330686110629347, 42.67523222490375], [23.33063500225499, 42.675218553334126], [23.330646258723668, 42.67519854781083], [23.330697516862024, 42.6752141021205], [23.330686110629347, 42.67523222490375]]]}}, {"type": "Feature", "properties": {"id": "drawn_0004", "drawings": 1, "nearest_mapped_bay_m": 6.11, "source": "hand-drawn from drone imagery"}, "geometry": {"type": "Polygon", "coordinates": [[[23.331209153796387, 42.67540640735106], [23.33121983780665, 42.675390836632005], [23.331280339790723, 42.675411195359686], [23.331270349353428, 42.67542700301771], [23.331209153796387, 42.67540640735106]]]}}, {"type": "Feature", "properties": {"id": "drawn_0005", "drawings": 1, "nearest_mapped_bay_m": 8.53, "source": "hand-drawn from drone imagery"}, "geometry": {"type": "Polygon", "coordinates": [[[23.331731577116233, 42.67547994358825], [23.33167788245202, 42.67545800722288], [23.33169040287257, 42.67543997599271], [23.331746727238542, 42.675464236475676], [23.331731577116233, 42.67547994358825]]]}}, {"type": "Feature", "properties": {"id": "drawn_0006", "drawings": 1, "nearest_mapped_bay_m": 6.44, "source": "hand-drawn from drone imagery"}, "geometry": {"type": "Polygon", "coordinates": [[[23.33178489471476, 42.67550530401175], [23.331735894972326, 42.675482455633876], [23.331752027088406, 42.67546533430716], [23.331807268228122, 42.67549141670609], [23.33178489471476, 42.67550530401175]]]}}, {"type": "Feature", "properties": {"id": "drawn_0007", "drawings": 1, "nearest_mapped_bay_m": 8.72, "source": "hand-drawn from drone imagery"}, "geometry": {"type": "Polygon", "coordinates": [[[23.331908677176784, 42.675555775383714], [23.331855083745054, 42.67553343131651], [23.33187261807068, 42.675520401875055], [23.331918957776598, 42.675543588938105], [23.331908677176784, 42.675555775383714]]]}}, {"type": "Feature", "properties": {"id": "drawn_0008", "drawings": 1, "nearest_mapped_bay_m": 6.36, "source": "hand-drawn from drone imagery"}, "geometry": {"type": "Polygon", "coordinates": [[[23.329602520736884, 42.67568248997045], [23.329608093579182, 42.67566824355948], [23.32955094104658, 42.675652166427575], [23.32954415040028, 42.675667630472596], [23.329602520736884, 42.67568248997045]]]}}, {"type": "Feature", "properties": {"id": "drawn_0009", "drawings": 1, "nearest_mapped_bay_m": 11.76, "source": "hand-drawn from drone imagery"}, "geometry": {"type": "Polygon", "coordinates": [[[23.329544000238148, 42.67565019054483], [23.329537869822005, 42.67566534770576], [23.329478356302303, 42.675648903326156], [23.32948101696803, 42.6756344679009], [23.329544000238148, 42.67565019054483]]]}}, {"type": "Feature", "properties": {"id": "drawn_0010", "drawings": 1, "nearest_mapped_bay_m": 7.93, "source": "hand-drawn from drone imagery"}, "geometry": {"type": "Polygon", "coordinates": [[[23.3296212087547, 42.675775917557914], [23.329643713253745, 42.67577971399168], [23.329629975936623, 42.67581817716648], [23.329608269540472, 42.67581495650645], [23.3296212087547, 42.675775917557914]]]}}, {"type": "Feature", "properties": {"id": "drawn_0011", "drawings": 1, "nearest_mapped_bay_m": 12.42, "source": "hand-drawn from drone imagery"}, "geometry": {"type": "Polygon", "coordinates": [[[23.32975206821926, 42.675721502828075], [23.329758059965993, 42.67570785808247], [23.32980756976708, 42.67572111663808], [23.329800340761686, 42.675734467702675], [23.32975206821926, 42.675721502828075]]]}}, {"type": "Feature", "properties": {"id": "drawn_0012", "drawings": 1, "nearest_mapped_bay_m": 14.29, "source": "hand-drawn from drone imagery"}, "geometry": {"type": "Polygon", "coordinates": [[[23.32980513754826, 42.6757356780361], [23.32981185649436, 42.675721488426774], [23.329859749781424, 42.675734650269646], [23.32985154864422, 42.67574777058487], [23.32980513754826, 42.6757356780361]]]}}, {"type": "Feature", "properties": {"id": "drawn_0013", "drawings": 1, "nearest_mapped_bay_m": 14.26, "source": "hand-drawn from drone imagery"}, "geometry": {"type": "Polygon", "coordinates": [[[23.329876251899087, 42.67575449522493], [23.329886574051134, 42.67574187836287], [23.329932990705572, 42.675754402715945], [23.329925143070845, 42.675767606940035], [23.329876251899087, 42.67575449522493]]]}}, {"type": "Feature", "properties": {"id": "drawn_0014", "drawings": 1, "nearest_mapped_bay_m": 13.92, "source": "hand-drawn from drone imagery"}, "geometry": {"type": "Polygon", "coordinates": [[[23.329450459827875, 42.67563986712066], [23.329455433495497, 42.675626985184245], [23.329414679970046, 42.675616809520534], [23.32940848849842, 42.675630909091], [23.329450459827875, 42.67563986712066]]]}}]}