{"type": "FeatureCollection", "features": [{"type": "Feature", "properties": {"osm_id": 20302244, "name": "бул. Свети Наум", "highway": "tertiary", "lanes": "2", "oneway": "yes"}, "geometry": {"type": "LineString", "coordinates": [[23.3337049, 42.6764294], [23.3335651, 42.6765944]]}}, {"type": "Feature", "properties": {"osm_id": 20302341, "name": "пл. Велчова завера", "highway": "tertiary", "lanes": "3", "oneway": "yes"}, "geometry": {"type": "LineString", "coordinates": [[23.3336427, 42.676282], [23.3336521, 42.6762681], [23.333712, 42.6761497], [23.3337439, 42.6759801], [23.333774, 42.6757586], [23.3337939, 42.6755842], [23.3338172, 42.6753736], [23.3338566, 42.6750449], [23.3338751, 42.6748673], [23.3338897, 42.6748073]]}}, {"type": "Feature", "properties": {"osm_id": 20302449, "name": "бул. Свети Наум", "highway": "tertiary", "lanes": "3", "oneway": "yes"}, "geometry": {"type": "LineString", "coordinates": [[23.3333733, 42.6766908], [23.333554, 42.6764127], [23.3335781, 42.6763756], [23.333634, 42.6762949], [23.3336427, 42.676282]]}}, {"type": "Feature", "properties": {"osm_id": 23030958, "name": "Презвитер Козма", "highway": "residential", "lanes": null, "oneway": "yes"}, "geometry": {"type": "LineString", "coordinates": [[23.3309691, 42.676714], [23.3324062, 42.676965], [23.3325105, 42.6769832]]}}, {"type": "Feature", "properties": {"osm_id": 23040421, "name": "Златовръх", "highway": "residential", "lanes": null, "oneway": null}, "geometry": {"type": "LineString", "coordinates": [[23.3341936, 42.67462], [23.334131, 42.6745861], [23.3340664, 42.6745239], [23.3339956, 42.6744083]]}}, {"type": "Feature", "properties": {"osm_id": 23416396, "name": "Симеоново", "highway": "residential", "lanes": null, "oneway": "yes"}, "geometry": {"type": "LineString", "coordinates": [[23.3348655, 42.6726808], [23.3341754, 42.6720996], [23.3340313, 42.6719777], [23.3335135, 42.6715399]]}}, {"type": "Feature", "properties": {"osm_id": 48869283, "name": "бул. Джеймс Баучер", "highway": "tertiary", "lanes": "2", "oneway": null}, "geometry": {"type": "LineString", "coordinates": [[23.3262787, 42.6737741], [23.3279879, 42.6742593], [23.3282547, 42.6743375], [23.3283163, 42.6743566], [23.3285113, 42.674421], [23.3287253, 42.6744988], [23.3300784, 42.6749895], [23.3301322, 42.675009], [23.3314731, 42.6754952], [23.3315482, 42.6755224], [23.3322087, 42.6757619], [23.3323897, 42.6758276], [23.3329017, 42.6760132]]}}, {"type": "Feature", "properties": {"osm_id": 157686323, "name": "Галичица", "highway": "residential", "lanes": null, "oneway": "yes"}, "geometry": {"type": "LineString", "coordinates": [[23.3309589, 42.6724346], [23.3310806, 42.6724269], [23.3311501, 42.6724225], [23.3315033, 42.6724003], [23.331771, 42.6723834], [23.3324468, 42.6723417], [23.3324989, 42.6723385], [23.3331591, 42.6722977], [23.3332767, 42.6722886]]}}, {"type": "Feature", "properties": {"osm_id": 157686349, "name": "Минзухар", "highway": "residential", "lanes": null, "oneway": "yes"}, "geometry": {"type": "LineString", "coordinates": [[23.3279853, 42.6732697], [23.3264486, 42.6729702]]}}, {"type": "Feature", "properties": {"osm_id": 157689978, "name": "Якубица", "highway": "residential", "lanes": null, "oneway": "yes"}, "geometry": {"type": "LineString", "coordinates": [[23.3288453, 42.6731178], [23.3289002, 42.6729957], [23.3289272, 42.6729357], [23.3289253, 42.6728461], [23.3289236, 42.6727697], [23.3289191, 42.672563], [23.3288621, 42.6718521], [23.3288045, 42.6714731], [23.3287614, 42.6711897], [23.3287261, 42.6709577], [23.3286586, 42.670503], [23.328653, 42.6704654], [23.328615, 42.6702091], [23.3285795, 42.6699604], [23.3285453, 42.6697236], [23.3285108, 42.6694797]]}}, {"type": "Feature", "properties": {"osm_id": 157690162, "name": "Димитър Димов", "highway": "residential", "lanes": "1", "oneway": "yes"}, "geometry": {"type": "LineString", "coordinates": [[23.3318858, 42.676414], [23.331015, 42.6761695], [23.3307038, 42.6760833], [23.3306217, 42.6760606], [23.3303349, 42.6759812], [23.3300382, 42.6758991]]}}, {"type": "Feature", "properties": {"osm_id": 157690177, "name": "Йоан Екзарх", "highway": "residential", "lanes": "1", "oneway": "yes"}, "geometry": {"type": "LineString", "coordinates": [[23.3329017, 42.6760132], [23.3328918, 42.6760269], [23.3328488, 42.676079], [23.3328267, 42.676106], [23.3318858, 42.676414], [23.3309691, 42.676714], [23.3306935, 42.6768042], [23.3294939, 42.6771969]]}}, {"type": "Feature", "properties": {"osm_id": 157690201, "name": "Презвитер Козма", "highway": "residential", "lanes": "1", "oneway": "yes"}, "geometry": {"type": "LineString", "coordinates": [[23.3285388, 42.6762712], [23.3286112, 42.6763033], [23.3286721, 42.6763169], [23.3292202, 42.6764387], [23.3293876, 42.6764759]]}}, {"type": "Feature", "properties": {"osm_id": 157690207, "name": "Света гора", "highway": "residential", "lanes": "1", "oneway": "yes"}, "geometry": {"type": "LineString", "coordinates": [[23.3294355, 42.6768007], [23.3293876, 42.6764759], [23.3296411, 42.6757895]]}}, {"type": "Feature", "properties": {"osm_id": 157690222, "name": "Черноризец Храбър", "highway": "residential", "lanes": "1", "oneway": null}, "geometry": {"type": "LineString", "coordinates": [[23.3283086, 42.6766371], [23.3282738, 42.6766382], [23.3279503, 42.6766476], [23.3277493, 42.6766534], [23.3275364, 42.6766596], [23.3273219, 42.6766658], [23.3271101, 42.676672], [23.3268071, 42.6766808]]}}, {"type": "Feature", "properties": {"osm_id": 157691266, "name": "бул. Свети Наум", "highway": "tertiary", "lanes": "3", "oneway": null}, "geometry": {"type": "LineString", "coordinates": [[23.3333733, 42.6766908], [23.3325105, 42.6769832], [23.33188, 42.6771977], [23.3303112, 42.6777261]]}}, {"type": "Feature", "properties": {"osm_id": 157691268, "name": "бул. Христо Смирненски", "highway": "tertiary", "lanes": "1", "oneway": "yes"}, "geometry": {"type": "LineString", "coordinates": [[23.3316856, 42.6804434], [23.3316919, 42.6804157], [23.3317162, 42.6803062], [23.3318926, 42.6795315], [23.3320758, 42.6788099], [23.3322308, 42.678581], [23.3322471, 42.6785585], [23.3324273, 42.6782923], [23.3325005, 42.6781865], [23.3326462, 42.6779792], [23.3327492, 42.6778327], [23.3329082, 42.6776052], [23.3330948, 42.6773377], [23.3332208, 42.6771568], [23.3333984, 42.6769041]]}}, {"type": "Feature", "properties": {"osm_id": 260087482, "name": "бул. Свети Наум", "highway": "tertiary", "lanes": "2", "oneway": "yes"}, "geometry": {"type": "LineString", "coordinates": [[23.3338085, 42.676317], [23.3338035, 42.676322], [23.3337795, 42.6763458], [23.3337049, 42.6764294]]}}, {"type": "Feature", "properties": {"osm_id": 272380221, "name": "Милин камък", "highway": "tertiary", "lanes": "2", "oneway": null}, "geometry": {"type": "LineString", "coordinates": [[23.3268071, 42.6766808], [23.326799, 42.6765258], [23.3268392, 42.676368], [23.326992, 42.6760781], [23.3272446, 42.675697], [23.3276539, 42.6751865], [23.3281842, 42.6744379], [23.3282026, 42.6744123]]}}, {"type": "Feature", "properties": {"osm_id": 280638075, "name": "бул. Свети Наум", "highway": "tertiary", "lanes": "2", "oneway": "yes"}, "geometry": {"type": "LineString", "coordinates": [[23.3335651, 42.6765944], [23.3334482, 42.6766647], [23.3333733, 42.6766908]]}}, {"type": "Feature", "properties": {"osm_id": 293072015, "name": "пл. Велчова завера", "highway": "tertiary", "lanes": "2", "oneway": "yes"}, "geometry": {"type": "LineString", "coordinates": [[23.3341515, 42.6748354], [23.3341337, 42.6750608], [23.3341069, 42.6753996], [23.3340865, 42.6756009], [23.3340535, 42.6759272], [23.3340018, 42.6761393], [23.333906, 42.6762304]]}}, {"type": "Feature", "properties": {"osm_id": 360620065, "name": "Бабуна планина", "highway": "residential", "lanes": null, "oneway": "yes"}, "geometry": {"type": "LineString", "coordinates": [[23.3308549, 42.6716842], [23.3309589, 42.6724346]]}}, {"type": "Feature", "properties": {"osm_id": 458807078, "name": "Йосиф Петров", "highway": "unclassified", "lanes": null, "oneway": null}, "geometry": {"type": "LineString", "coordinates": [[23.3338085, 42.676317], [23.3340774, 42.6763782]]}}, {"type": "Feature", "properties": {"osm_id": 587749820, "name": "Галичица", "highway": "residential", "lanes": null, "oneway": "yes"}, "geometry": {"type": "LineString", "coordinates": [[23.3289191, 42.672563], [23.3294445, 42.6725299], [23.3303327, 42.672474], [23.3304244, 42.6724682], [23.3305327, 42.6724614], [23.330558, 42.6724598], [23.330882, 42.6724394], [23.3309589, 42.6724346]]}}, {"type": "Feature", "properties": {"osm_id": 587749821, "name": "Галичица", "highway": "residential", "lanes": null, "oneway": "yes"}, "geometry": {"type": "LineString", "coordinates": [[23.3264534, 42.6726133], [23.3283179, 42.6725753], [23.3288435, 42.6725645], [23.3289191, 42.672563]]}}, {"type": "Feature", "properties": {"osm_id": 587905407, "name": "Д-р Марин Русев", "highway": "residential", "lanes": null, "oneway": null}, "geometry": {"type": "LineString", "coordinates": [[23.3318725, 42.6731856], [23.3318395, 42.6728833], [23.331771, 42.6723834]]}}, {"type": "Feature", "properties": {"osm_id": 666438095, "name": "Васил Кирков", "highway": "residential", "lanes": null, "oneway": "yes"}, "geometry": {"type": "LineString", "coordinates": [[23.3338294, 42.6737697], [23.3344896, 42.6730759]]}}, {"type": "Feature", "properties": {"osm_id": 673155346, "name": "бул. Христо Смирненски", "highway": "tertiary", "lanes": "1", "oneway": "yes"}, "geometry": {"type": "LineString", "coordinates": [[23.3333984, 42.6769041], [23.3334172, 42.676877]]}}, {"type": "Feature", "properties": {"osm_id": 676659425, "name": "Света гора", "highway": "residential", "lanes": "1", "oneway": "yes"}, "geometry": {"type": "LineString", "coordinates": [[23.3296411, 42.6757895], [23.3297691, 42.6754891], [23.3300357, 42.6750529], [23.3300701, 42.6750024], [23.3300784, 42.6749895]]}}, {"type": "Feature", "properties": {"osm_id": 814838193, "name": "Кораб планина", "highway": "residential", "lanes": null, "oneway": "yes"}, "geometry": {"type": "LineString", "coordinates": [[23.3282461, 42.6718838], [23.3271248, 42.6719415], [23.3264456, 42.6719765], [23.3261075, 42.6719912], [23.3239276, 42.6720862]]}}, {"type": "Feature", "properties": {"osm_id": 814838194, "name": "Кораб планина", "highway": "residential", "lanes": null, "oneway": "yes"}, "geometry": {"type": "LineString", "coordinates": [[23.3308549, 42.6716842], [23.3307961, 42.6716892], [23.3306484, 42.6717016], [23.3304118, 42.6717215], [23.3301096, 42.671747], [23.3299506, 42.6717604], [23.3298727, 42.671767], [23.3297679, 42.6717758]]}}, {"type": "Feature", "properties": {"osm_id": 856821051, "name": "пл. Велчова завера", "highway": "tertiary", "lanes": "3", "oneway": "yes"}, "geometry": {"type": "LineString", "coordinates": [[23.3338897, 42.6748073], [23.3339443, 42.6747358], [23.3340523, 42.6746674], [23.3341936, 42.67462]]}}, {"type": "Feature", "properties": {"osm_id": 856821053, "name": "Златовръх", "highway": "residential", "lanes": null, "oneway": null}, "geometry": {"type": "LineString", "coordinates": [[23.3338294, 42.6737697], [23.3336443, 42.6732782], [23.3335876, 42.6731257], [23.3334092, 42.6726454], [23.3333669, 42.6725315], [23.3332767, 42.6722886], [23.3331532, 42.6719329], [23.3330438, 42.6716179], [23.3329972, 42.6715038], [23.3326728, 42.6707026]]}}, {"type": "Feature", "properties": {"osm_id": 883762314, "name": "Кораб планина", "highway": "residential", "lanes": null, "oneway": "yes"}, "geometry": {"type": "LineString", "coordinates": [[23.3297679, 42.6717758], [23.3288621, 42.6718521], [23.328745, 42.6718581]]}}, {"type": "Feature", "properties": {"osm_id": 883762315, "name": "Кораб планина", "highway": "residential", "lanes": null, "oneway": "yes"}, "geometry": {"type": "LineString", "coordinates": [[23.328745, 42.6718581], [23.3282461, 42.6718838]]}}, {"type": "Feature", "properties": {"osm_id": 906109615, "name": "Д-р Марин Русев", "highway": "residential", "lanes": null, "oneway": null}, "geometry": {"type": "LineString", "coordinates": [[23.3328591, 42.6732405], [23.3327137, 42.6732428]]}}, {"type": "Feature", "properties": {"osm_id": 906109616, "name": "Д-р Марин Русев", "highway": "residential", "lanes": null, "oneway": null}, "geometry": {"type": "LineString", "coordinates": [[23.3327137, 42.6732428], [23.332478, 42.6732466]]}}, {"type": "Feature", "properties": {"osm_id": 906109617, "name": "Д-р Марин Русев", "highway": "residential", "lanes": null, "oneway": null}, "geometry": {"type": "LineString", "coordinates": [[23.332478, 42.6732466], [23.3319239, 42.6732738], [23.3318768, 42.6732777], [23.3318725, 42.6731856]]}}, {"type": "Feature", "properties": {"osm_id": 1056871741, "name": "пл. Велчова завера", "highway": "tertiary", "lanes": "2", "oneway": "yes"}, "geometry": {"type": "LineString", "coordinates": [[23.333906, 42.6762304], [23.3338085, 42.676317]]}}, {"type": "Feature", "properties": {"osm_id": 1056871742, "name": "бул. Джеймс Баучер", "highway": "tertiary", "lanes": "4", "oneway": null}, "geometry": {"type": "LineString", "coordinates": [[23.3336427, 42.676282], [23.3337491, 42.6763037], [23.3338085, 42.676317]]}}, {"type": "Feature", "properties": {"osm_id": 1106607733, "name": "Минзухар", "highway": "residential", "lanes": null, "oneway": "yes"}, "geometry": {"type": "LineString", "coordinates": [[23.3287133, 42.6734116], [23.3279853, 42.6732697]]}}, {"type": "Feature", "properties": {"osm_id": 1111088666, "name": "Света гора", "highway": "residential", "lanes": "1", "oneway": "yes"}, "geometry": {"type": "LineString", "coordinates": [[23.3294939, 42.6771969], [23.3294828, 42.6771218], [23.3294355, 42.6768007]]}}, {"type": "Feature", "properties": {"osm_id": 1111088678, "name": "Димитър Димов", "highway": "residential", "lanes": "1", "oneway": "yes"}, "geometry": {"type": "LineString", "coordinates": [[23.3300382, 42.6758991], [23.329863, 42.6758506], [23.3296411, 42.6757895], [23.3295419, 42.67576]]}}, {"type": "Feature", "properties": {"osm_id": 1111088680, "name": "Димитър Димов", "highway": "residential", "lanes": "1", "oneway": "yes"}, "geometry": {"type": "LineString", "coordinates": [[23.3295419, 42.67576], [23.3294104, 42.6757201]]}}, {"type": "Feature", "properties": {"osm_id": 1111088681, "name": "Димитър Димов", "highway": "residential", "lanes": "1", "oneway": "yes"}, "geometry": {"type": "LineString", "coordinates": [[23.3294104, 42.6757201], [23.3290282, 42.675604]]}}, {"type": "Feature", "properties": {"osm_id": 1111088682, "name": "Димитър Димов", "highway": "residential", "lanes": "1", "oneway": "yes"}, "geometry": {"type": "LineString", "coordinates": [[23.3290282, 42.675604], [23.3286305, 42.6754832]]}}, {"type": "Feature", "properties": {"osm_id": 1111088683, "name": "Димитър Димов", "highway": "residential", "lanes": "1", "oneway": "yes"}, "geometry": {"type": "LineString", "coordinates": [[23.3286305, 42.6754832], [23.3276539, 42.6751865]]}}, {"type": "Feature", "properties": {"osm_id": 1111088685, "name": "Презвитер Козма", "highway": "residential", "lanes": "1", "oneway": "yes"}, "geometry": {"type": "LineString", "coordinates": [[23.3272446, 42.675697], [23.3276021, 42.6758556]]}}, {"type": "Feature", "properties": {"osm_id": 1111088686, "name": "Презвитер Козма", "highway": "residential", "lanes": "1", "oneway": "yes"}, "geometry": {"type": "LineString", "coordinates": [[23.3276021, 42.6758556], [23.3284842, 42.676247], [23.3285388, 42.6762712]]}}, {"type": "Feature", "properties": {"osm_id": 1115502712, "name": "бул. Джеймс Баучер", "highway": "tertiary", "lanes": "5", "oneway": null}, "geometry": {"type": "LineString", "coordinates": [[23.3331057, 42.6760866], [23.3334756, 42.6762213], [23.3335224, 42.6762382], [23.3336427, 42.676282]]}}, {"type": "Feature", "properties": {"osm_id": 1341292054, "name": "Якубица", "highway": "residential", "lanes": null, "oneway": "yes"}, "geometry": {"type": "LineString", "coordinates": [[23.3282547, 42.6743375], [23.3282642, 42.6743232], [23.3282922, 42.674265]]}}, {"type": "Feature", "properties": {"osm_id": 1341292055, "name": "Милин камък", "highway": "tertiary", "lanes": "2", "oneway": null}, "geometry": {"type": "LineString", "coordinates": [[23.3282026, 42.6744123], [23.3282453, 42.6743517], [23.3282547, 42.6743375]]}}, {"type": "Feature", "properties": {"osm_id": 1341292059, "name": "Якубица", "highway": "residential", "lanes": null, "oneway": "yes"}, "geometry": {"type": "LineString", "coordinates": [[23.3282922, 42.674265], [23.3283008, 42.6742477], [23.3284805, 42.673881], [23.3285248, 42.6737905], [23.3285597, 42.6737204], [23.3287133, 42.6734116], [23.3287637, 42.6732995], [23.3288453, 42.6731178]]}}, {"type": "Feature", "properties": {"osm_id": 1382335108, "name": "Златовръх", "highway": "residential", "lanes": null, "oneway": null}, "geometry": {"type": "LineString", "coordinates": [[23.3339956, 42.6744083], [23.3339439, 42.6742111]]}}, {"type": "Feature", "properties": {"osm_id": 1382335109, "name": "Златовръх", "highway": "residential", "lanes": null, "oneway": null}, "geometry": {"type": "LineString", "coordinates": [[23.3339439, 42.6742111], [23.3338457, 42.6738326], [23.3338294, 42.6737697]]}}, {"type": "Feature", "properties": {"osm_id": 1383261300, "name": "бул. Христо Смирненски", "highway": "tertiary", "lanes": "1", "oneway": "yes"}, "geometry": {"type": "LineString", "coordinates": [[23.3334172, 42.676877], [23.3334549, 42.676822], [23.3334068, 42.6767435], [23.3333733, 42.6766908]]}}, {"type": "Feature", "properties": {"osm_id": 1459492610, "name": "бул. Джеймс Баучер", "highway": "tertiary", "lanes": "4", "oneway": null}, "geometry": {"type": "LineString", "coordinates": [[23.3329017, 42.6760132], [23.3331057, 42.6760866]]}}], "_center": [42.6743496, 23.3305178], "_half_m": 290.0}