{"type": "Feature", "geometry": {"type": "Polygon", "coordinates": [[[23.3094856, 42.6724549], [23.309488, 42.6724038], [23.3095096, 42.6723738], [23.3095539, 42.672351], [23.3096929, 42.6723071], [23.309873, 42.6722705], [23.3100623, 42.6722415], [23.3101692, 42.6722246], [23.3102696, 42.6721998], [23.3103936, 42.6721481], [23.3105224, 42.6720754], [23.3107339, 42.6719327], [23.3107832, 42.6719601], [23.3108278, 42.6719849], [23.3111035, 42.6721383], [23.311186, 42.6720756], [23.3112413, 42.6720612], [23.3113365, 42.6720576], [23.3114771, 42.6720427], [23.3116584, 42.6720226], [23.3118189, 42.6719739], [23.3120388, 42.6719128], [23.3121951, 42.6718393], [23.3122944, 42.6717908], [23.3123547, 42.6717243], [23.3126694, 42.6715751], [23.3128898, 42.6714706], [23.3134797, 42.6710366], [23.3137465, 42.6708632], [23.3139177, 42.6707651], [23.3139192, 42.6703874], [23.3139199, 42.6702433], [23.3139076, 42.6699608], [23.3139039, 42.6698944], [23.313903, 42.6698799], [23.3138733, 42.6694109], [23.3138781, 42.6692974], [23.3139081, 42.6691667], [23.3140326, 42.6684004], [23.3140327, 42.668324], [23.314033, 42.6680409], [23.3140025, 42.6677731], [23.3139758, 42.6675383], [23.3139465, 42.6672851], [23.3139427, 42.6672481], [23.3138724, 42.6664498], [23.3138694, 42.6664154], [23.3138644, 42.6663585], [23.3138488, 42.6662661], [23.3138391, 42.666209], [23.3137328, 42.665618], [23.3137206, 42.6654813], [23.3137151, 42.663992], [23.3137139, 42.6638878], [23.3137035, 42.6637699], [23.313678, 42.6635205], [23.3136518, 42.6632637], [23.3136263, 42.6630144], [23.3135994, 42.662646], [23.3135486, 42.6619114], [23.3135225, 42.6616696], [23.3134761, 42.6612402], [23.3134202, 42.6608261], [23.3133913, 42.6605651], [23.313388, 42.6605283], [23.3133756, 42.6602886], [23.3133266, 42.6595431], [23.3133035, 42.6590633], [23.3132826, 42.6588956], [23.3132429, 42.6587271], [23.313201, 42.6585824], [23.3131658, 42.6584605], [23.3131114, 42.6583094], [23.3130802, 42.6582225], [23.3129605, 42.6578952], [23.3129446, 42.6578537], [23.3128414, 42.6576118], [23.3130167, 42.6576666], [23.3132147, 42.6577556], [23.3132585, 42.6577735], [23.3133165, 42.657797], [23.3138624, 42.6580408], [23.3148209, 42.6584676], [23.3155345, 42.6588074], [23.316165, 42.659104], [23.3162434, 42.6591411], [23.316497, 42.6592642], [23.3164708, 42.6591348], [23.3164642, 42.6591026], [23.3163327, 42.6584614], [23.3163169, 42.6583906], [23.3162841, 42.6582314], [23.3162646, 42.658137], [23.3162181, 42.6579114], [23.3162045, 42.6578456], [23.3160388, 42.6570362], [23.3160281, 42.6569839], [23.3160071, 42.6568812], [23.3159808, 42.6567399], [23.3159719, 42.6566937], [23.3159651, 42.6566591], [23.3159568, 42.6566159], [23.3159103, 42.6563764], [23.3158764, 42.656207], [23.3158116, 42.6558728], [23.3157997, 42.6557873], [23.3157884, 42.6557201], [23.315785, 42.6556803], [23.3157798, 42.65562], [23.3157722, 42.6554333], [23.3157672, 42.6553094], [23.3157547, 42.6547595], [23.3157761, 42.654461], [23.3157864, 42.6543076], [23.3157985, 42.6541259], [23.3158738, 42.6536244], [23.3158928, 42.6534975], [23.315964, 42.6529862], [23.3159753, 42.6529007], [23.3160177, 42.6525754], [23.316034, 42.6523412], [23.3160359, 42.6520764], [23.3160278, 42.6519368], [23.316011, 42.6518298], [23.3159864, 42.6517203], [23.315949, 42.6515859], [23.3158736, 42.6512741], [23.3157957, 42.6509628], [23.3157041, 42.6506339], [23.3156881, 42.6505735], [23.3156661, 42.6504861], [23.3155938, 42.6501867], [23.3154592, 42.6497108], [23.3154212, 42.6495811], [23.3153143, 42.6492167], [23.3152957, 42.6491399], [23.3152146, 42.6488076], [23.3151482, 42.6485743], [23.3150929, 42.6483799], [23.3150291, 42.6481501], [23.3150175, 42.6481083], [23.3150056, 42.6480655], [23.3149625, 42.6479102], [23.3148932, 42.6476604], [23.3148433, 42.6474806], [23.3146881, 42.6469216], [23.3144561, 42.646078], [23.3143532, 42.6457124], [23.3143147, 42.6455874], [23.3142406, 42.6453472], [23.3142019, 42.6452143], [23.3140956, 42.6449204], [23.3139562, 42.6446024], [23.3138929, 42.6444744], [23.3138835, 42.6444553], [23.3138098, 42.6443277], [23.3136339, 42.6440365], [23.3136118, 42.6439998], [23.3134235, 42.6437144], [23.3130708, 42.6431549], [23.3128691, 42.6428461], [23.3128005, 42.6427185], [23.3127319, 42.6425779], [23.3125628, 42.6421534], [23.3124634, 42.641719], [23.3135971, 42.6412476], [23.316065, 42.6402632], [23.3172473, 42.6397856], [23.3174226, 42.6397143], [23.3178612, 42.6395329], [23.3210092, 42.638225], [23.3231656, 42.6373661], [23.3252157, 42.6365142], [23.3284773, 42.6352022], [23.3298579, 42.6346372], [23.3306235, 42.6343168], [23.3307453, 42.6342658], [23.3333231, 42.6332261], [23.3335361, 42.6331365], [23.333703, 42.6330679], [23.333725, 42.633248], [23.3338747, 42.6345236], [23.3340048, 42.6357125], [23.3341255, 42.636708], [23.3342368, 42.6378613], [23.3343669, 42.6389821], [23.3344607, 42.6398295], [23.3345345, 42.6403514], [23.3346538, 42.6415057], [23.3346619, 42.6416773], [23.3346404, 42.6419368], [23.3345747, 42.6422939], [23.3345355, 42.6424821], [23.3344536, 42.6427315], [23.3342685, 42.6431803], [23.3339842, 42.6438235], [23.333779, 42.6442842], [23.3337039, 42.6445654], [23.3336623, 42.6448041], [23.3336838, 42.6450773], [23.3337401, 42.6452865], [23.3338756, 42.6455479], [23.3340633, 42.6458261], [23.3345998, 42.6463637], [23.3350182, 42.6468145], [23.3351711, 42.6470937], [23.3352971, 42.647432], [23.3353857, 42.6478009], [23.3354701, 42.6485378], [23.3355908, 42.6497412], [23.3357464, 42.6510945], [23.3359221, 42.6524616], [23.3360777, 42.6536077], [23.3362118, 42.6549245], [23.3363539, 42.6562599], [23.3364637, 42.6574344], [23.3364692, 42.6575682], [23.3364678, 42.6576089], [23.3364851, 42.6577938], [23.3364904, 42.6578381], [23.3365792, 42.6584833], [23.3366457, 42.6591214], [23.3366787, 42.659452], [23.3366856, 42.6595287], [23.336728, 42.6598872], [23.3367379, 42.659971], [23.33716, 42.6634379], [23.3371879, 42.663728], [23.3372087, 42.6640441], [23.3372461, 42.6644608], [23.3372489, 42.664506], [23.3372554, 42.6645785], [23.3374193, 42.6659654], [23.3374543, 42.6662335], [23.337484, 42.6664517], [23.3374888, 42.6664958], [23.3375042, 42.6666088], [23.3375285, 42.6667913], [23.3375801, 42.667254], [23.3375961, 42.6674123], [23.3376157, 42.6676224], [23.337839, 42.6700462], [23.3378544, 42.6702274], [23.3378421, 42.6704062], [23.3378106, 42.6705565], [23.3377798, 42.6706762], [23.3376974, 42.670838], [23.3374068, 42.671187], [23.3367014, 42.671931], [23.3363055, 42.6723507], [23.3362795, 42.6723807], [23.3361748, 42.6725019], [23.3361882, 42.6726835], [23.3362288, 42.6727177], [23.3368462, 42.6732392], [23.3393319, 42.6754117], [23.3403863, 42.6763364], [23.3417676, 42.67748], [23.3413034, 42.6778416], [23.3410952, 42.6780124], [23.3401825, 42.6787612], [23.3395431, 42.6792951], [23.338817, 42.6799014], [23.3359282, 42.6822864], [23.3358733, 42.6823299], [23.3356789, 42.682484], [23.3355352, 42.6826052], [23.3354987, 42.6826364], [23.3354028, 42.6827185], [23.3352816, 42.6828223], [23.334929, 42.6831242], [23.3346661, 42.6833492], [23.333781, 42.6840833], [23.3333721, 42.6844205], [23.3333277, 42.6844588], [23.3332522, 42.6845222], [23.3328979, 42.684819], [23.3328284, 42.6848774], [23.3324289, 42.6852098], [23.3320449, 42.6855297], [23.3314095, 42.6860523], [23.3313807, 42.6860746], [23.3312223, 42.6862005], [23.33121, 42.6862101], [23.3311509, 42.686256], [23.3311096, 42.6862881], [23.331067, 42.6863227], [23.3308162, 42.6865333], [23.3307609, 42.6865798], [23.3307107, 42.686622], [23.3306927, 42.6866107], [23.3306304, 42.6865744], [23.3304913, 42.6865141], [23.330353, 42.6864634], [23.3300598, 42.6863651], [23.3299496, 42.6863299], [23.3296405, 42.6862311], [23.3289032, 42.6859926], [23.3288596, 42.685979], [23.3282909, 42.6857914], [23.3278476, 42.685644], [23.3274669, 42.6855175], [23.3270233, 42.6853741], [23.3260548, 42.6850565], [23.3259851, 42.6850348], [23.3259424, 42.6850214], [23.3258316, 42.6849857], [23.324957, 42.6847013], [23.3239415, 42.6843713], [23.3236997, 42.6842927], [23.3236711, 42.6842834], [23.3236131, 42.684265], [23.3233117, 42.6841666], [23.3223786, 42.6838623], [23.3216955, 42.6836371], [23.3213717, 42.683525], [23.3209828, 42.6833951], [23.3208067, 42.6833383], [23.3208187, 42.6831841], [23.3208222, 42.683165], [23.3208478, 42.6830255], [23.3208697, 42.6829211], [23.320926, 42.6827433], [23.3209721, 42.68259], [23.3210422, 42.6823661], [23.3211161, 42.6821395], [23.3211602, 42.6819371], [23.3217946, 42.6788455], [23.3218186, 42.678652], [23.321778, 42.6784701], [23.3215738, 42.678466], [23.3214311, 42.6784433], [23.3213847, 42.6784297], [23.320762, 42.6782425], [23.3203919, 42.6781214], [23.3200714, 42.6780174], [23.3197324, 42.6778879], [23.3194257, 42.6777308], [23.3193198, 42.6776759], [23.3186387, 42.6773163], [23.3179805, 42.6769749], [23.3168052, 42.676359], [23.3166392, 42.676272], [23.3158553, 42.675863], [23.3150702, 42.6754615], [23.3150444, 42.6754479], [23.314758, 42.6752971], [23.3147276, 42.6752812], [23.3145588, 42.675192], [23.3144514, 42.6751349], [23.3142254, 42.6750148], [23.3140083, 42.6749048], [23.3137541, 42.6747697], [23.3136708, 42.6747258], [23.3133785, 42.6745716], [23.3133034, 42.6745331], [23.3130902, 42.6744246], [23.3128676, 42.6743379], [23.3126047, 42.6742748], [23.3123124, 42.6742393], [23.3122329, 42.6742331], [23.3121757, 42.6742287], [23.312016, 42.6742185], [23.3120479, 42.6741082], [23.3120728, 42.6740832], [23.3122462, 42.6739143], [23.3121731, 42.6738758], [23.3120606, 42.6738165], [23.3119495, 42.673758], [23.3117204, 42.6736374], [23.3116269, 42.6735882], [23.3110586, 42.6732874], [23.3109165, 42.6732122], [23.3107884, 42.6731444], [23.3103717, 42.6729239], [23.3102952, 42.6728834], [23.3099451, 42.6726981], [23.3094856, 42.6724549]]]}, "properties": {"name": "Лозенец"}}