{"type": "FeatureCollection", "features": [{"type": "Feature", "properties": {"id": 1, "objectid": 3.0, "razshireni": "\"Зелена зона\"", "podzoni_20": "Подзона 19", "razshire_1": "\"Зелена зона\"", "num_2018": 19.0, "shape_leng": 2516.16899845, "shape_area": 329340.133329}, "geometry": {"type": "MultiPolygon", "coordinates": [[[[23.319158595, 42.711713419], [23.319202712, 42.711698064], [23.319297024, 42.71170321], [23.318996901, 42.711082385], [23.318948333, 42.710996407], [23.318652718, 42.710567004], [23.318494597, 42.710259871], [23.318343891, 42.709477414], [23.318284981, 42.709137355], [23.318088212, 42.708043281], [23.317842474, 42.706613252], [23.317693941, 42.705745488], [23.317657135, 42.705528121], [23.317635791, 42.70541787], [23.317617384, 42.705294763], [23.31761533, 42.705289413], [23.317593818, 42.705159057], [23.317566014, 42.705160954], [23.316380231, 42.70524231], [23.315420978, 42.705303288], [23.314517863, 42.705370627], [23.312655647, 42.705503238], [23.311856137, 42.705564147], [23.311883969, 42.705628633], [23.312283449, 42.706414357], [23.312415591, 42.706651137], [23.312535258, 42.70690797], [23.31271774, 42.707334127], [23.312943074, 42.707848692], [23.313227031, 42.708537486], [23.313554954, 42.709304176], [23.31376609, 42.709829096], [23.314162643, 42.710755818], [23.314570275, 42.711676911], [23.314818303, 42.712274355], [23.314929878, 42.712475891], [23.315190408, 42.712859241], [23.31529507, 42.713027741], [23.315646731, 42.713495529], [23.318050808, 42.712239656], [23.318786408, 42.71187825], [23.319040654, 42.711754471], [23.319158595, 42.711713419]]]]}}, {"type": "Feature", "properties": {"id": 2, "objectid": 4.0, "razshireni": "\"Зелена зона\"", "podzoni_20": "Подзона 17", "razshire_1": "\"Зелена зона\"", "num_2018": 17.0, "shape_leng": 3270.86355159, "shape_area": 318538.494723}, "geometry": {"type": "MultiPolygon", "coordinates": [[[[23.323809846, 42.704703455], [23.323834124, 42.704782854], [23.323878908, 42.705050217], [23.323846464, 42.705236996], [23.323375317, 42.706804429], [23.323141938, 42.707557595], [23.322719092, 42.709081889], [23.322456337, 42.710145058], [23.322659169, 42.710280178], [23.322695221, 42.71029461], [23.322677074, 42.710267218], [23.323144583, 42.709964083], [23.323386733, 42.709797714], [23.323476108, 42.709790832], [23.323597556, 42.709815667], [23.323755354, 42.709842696], [23.323796308, 42.709863084], [23.32392607, 42.709812972], [23.324063607, 42.709369825], [23.324177666, 42.709011606], [23.324229304, 42.709007114], [23.324342434, 42.709315448], [23.32450575, 42.709808387], [23.324677702, 42.710277698], [23.325236291, 42.710076974], [23.325115239, 42.710009227], [23.324770822, 42.710115758], [23.324698732, 42.709883663], [23.324535426, 42.709412482], [23.324316036, 42.708827557], [23.324275717, 42.708709754], [23.324258312, 42.708666614], [23.324327295, 42.708469123], [23.324334007, 42.708449976], [23.324347785, 42.708441583], [23.324388084, 42.70844502], [23.324758427, 42.708503983], [23.32530259, 42.708590927], [23.325834069, 42.708677168], [23.325940178, 42.70868419], [23.325938519, 42.708727459], [23.326103769, 42.708719883], [23.326189639, 42.70841511], [23.326339989, 42.70788147], [23.32647611, 42.707398329], [23.327156813, 42.707513773], [23.328185583, 42.707688381], [23.329499376, 42.7079093], [23.329854729, 42.707973354], [23.329933311, 42.708010807], [23.330235412, 42.708024041], [23.3303962, 42.70803476], [23.330574621, 42.708034197], [23.330724134, 42.70802294], [23.330898788, 42.707997471], [23.331042911, 42.7079653], [23.331180435, 42.707924831], [23.331374436, 42.707848764], [23.331612095, 42.707748703], [23.331850991, 42.707648121], [23.331974835, 42.707603931], [23.332074945, 42.707534973], [23.332247736, 42.707423054], [23.332380154, 42.706967149], [23.332450217, 42.706718352], [23.332597699, 42.706203223], [23.332731721, 42.705741136], [23.332823006, 42.705469559], [23.332838792, 42.705428633], [23.332994697, 42.705461252], [23.333127617, 42.705475378], [23.333261606, 42.705476156], [23.333337208, 42.70546118], [23.333430228, 42.705402578], [23.333497714, 42.705334928], [23.333524283, 42.705280937], [23.333685567, 42.705110572], [23.333814703, 42.705002588], [23.333444303, 42.704813109], [23.333286268, 42.70478797], [23.33294102, 42.704739919], [23.332471643, 42.704739777], [23.331442919, 42.704605225], [23.329381872, 42.704343888], [23.328785225, 42.704278509], [23.326816331, 42.704427555], [23.325700754, 42.704532782], [23.324203125, 42.704649069], [23.323809846, 42.704703455]]]]}}, {"type": "Feature", "properties": {"id": 3, "objectid": 5.0, "razshireni": "\"Зелена зона\"", "podzoni_20": "Подзона 18", "razshire_1": "\"Зелена зона\"", "num_2018": 18.0, "shape_leng": 2372.67899158, "shape_area": 303880.028143}, "geometry": {"type": "MultiPolygon", "coordinates": [[[[23.317593818, 42.705159057], [23.31761533, 42.705289413], [23.317617384, 42.705294763], [23.317635791, 42.70541787], [23.317657135, 42.705528121], [23.317693941, 42.705745488], [23.317842474, 42.706613252], [23.318088212, 42.708043281], [23.318284981, 42.709137355], [23.318343891, 42.709477414], [23.318494597, 42.710259871], [23.318652718, 42.710567004], [23.318948333, 42.710996407], [23.318996901, 42.711082385], [23.319297024, 42.71170321], [23.319378344, 42.711799956], [23.3195711, 42.712047935], [23.319688494, 42.712159598], [23.319750699, 42.712181357], [23.319888274, 42.712283693], [23.321503451, 42.711692836], [23.323004531, 42.711109182], [23.323117243, 42.711039915], [23.323105924, 42.710962709], [23.323116278, 42.710930174], [23.323029612, 42.710800773], [23.32287285, 42.710563011], [23.322738321, 42.710359667], [23.322695221, 42.71029461], [23.322659169, 42.710280178], [23.322456337, 42.710145058], [23.322719092, 42.709081889], [23.323141938, 42.707557595], [23.323375317, 42.706804429], [23.323846464, 42.705236996], [23.323878908, 42.705050217], [23.323834124, 42.704782854], [23.323809846, 42.704703455], [23.323809694, 42.704703476], [23.322918158, 42.704801114], [23.321330599, 42.704904046], [23.32016084, 42.704984393], [23.31909695, 42.705056503], [23.317593818, 42.705159057]]]]}}, {"type": "Feature", "properties": {"id": 4, "objectid": 6.0, "razshireni": "\"Зелена зона\"", "podzoni_20": "Подзона 14", "razshire_1": "\"Зелена зона\"", "num_2018": 14.0, "shape_leng": 2680.37878924, "shape_area": 307933.014258}, "geometry": {"type": "MultiPolygon", "coordinates": [[[[23.344751275, 42.699935458], [23.344410992, 42.699746382], [23.34428576, 42.699680723], [23.344127219, 42.699614321], [23.343946813, 42.699582128], [23.342435934, 42.69944239], [23.341824827, 42.699388132], [23.340579734, 42.699268903], [23.34025393, 42.699234796], [23.338566741, 42.69906949], [23.33798045, 42.699006195], [23.336345168, 42.698842147], [23.334686796, 42.69868725], [23.334659448, 42.698815407], [23.334558407, 42.699157023], [23.334407719, 42.699642188], [23.334326892, 42.699912866], [23.334224842, 42.700254607], [23.333877188, 42.701420272], [23.333639827, 42.702210348], [23.333566624, 42.702458746], [23.333402343, 42.703018589], [23.333331926, 42.703244618], [23.332891351, 42.704732142], [23.33288517, 42.704739902], [23.33294102, 42.704739919], [23.333286268, 42.70478797], [23.333444303, 42.704813109], [23.333814703, 42.705002588], [23.334063057, 42.704778823], [23.334092619, 42.704751976], [23.334355738, 42.704618343], [23.334813768, 42.704373989], [23.335319715, 42.704103545], [23.335782582, 42.703856931], [23.336094846, 42.703691025], [23.33659035, 42.703425313], [23.336966783, 42.703236636], [23.337272189, 42.703074815], [23.337745904, 42.702823526], [23.338367446, 42.702493423], [23.338527134, 42.702409225], [23.338679386, 42.702341177], [23.3390109, 42.702195879], [23.339439836, 42.702014106], [23.339981802, 42.70178685], [23.340409109, 42.701609539], [23.340742555, 42.70147131], [23.341368421, 42.701213402], [23.34179437, 42.701042857], [23.342392225, 42.700799643], [23.342385861, 42.70079203], [23.342493323, 42.700751156], [23.343383397, 42.700416861], [23.344082698, 42.700152942], [23.344557325, 42.699992352], [23.344751275, 42.699935458]]]]}}, {"type": "Feature", "properties": {"id": 5, "objectid": 8.0, "razshireni": "\"Зелена зона\"", "podzoni_20": "Подзона 16", "razshire_1": "\"Зелена зона\"", "num_2018": 16.0, "shape_leng": 2540.05576845, "shape_area": 398137.749674}, "geometry": {"type": "MultiPolygon", "coordinates": [[[[23.323804648, 42.704700516], [23.323805816, 42.704703326], [23.324199095, 42.704648939], [23.325696725, 42.704532653], [23.326812302, 42.704427425], [23.328780957, 42.704278398], [23.328785667, 42.704272134], [23.32885943, 42.70382163], [23.329016806, 42.70292622], [23.329274362, 42.701512696], [23.329425109, 42.700647167], [23.329563073, 42.699846795], [23.329868713, 42.698205714], [23.328889741, 42.698109975], [23.327947239, 42.698016329], [23.326904456, 42.697908316], [23.325986536, 42.69782182], [23.324849999, 42.697694153], [23.324383548, 42.697630172], [23.323771399, 42.697562992], [23.321803779, 42.697857817], [23.322204536, 42.699401368], [23.322446411, 42.700192976], [23.322747893, 42.701233058], [23.322986922, 42.702038076], [23.323243591, 42.702847522], [23.323527844, 42.703755862], [23.323580433, 42.703936377], [23.323804648, 42.704700516]]]]}}, {"type": "Feature", "properties": {"id": 6, "objectid": 9.0, "razshireni": "\"Зелена зона\"", "podzoni_20": "Подзона 7", "razshire_1": "\"Зелена зона\"", "num_2018": 7.0, "shape_leng": 2301.05373188, "shape_area": 323132.379443}, "geometry": {"type": "MultiPolygon", "coordinates": [[[[23.315699136, 42.698988749], [23.315667316, 42.698883802], [23.314624562, 42.699076283], [23.313711117, 42.699248041], [23.312808856, 42.699418121], [23.311557083, 42.699654336], [23.310133031, 42.6999168], [23.310125233, 42.69991964], [23.31020568, 42.700202767], [23.310419269, 42.701174028], [23.310716073, 42.702191228], [23.310984, 42.703118442], [23.311251048, 42.704041316], [23.311465867, 42.704792464], [23.311856137, 42.705564147], [23.312655647, 42.705503238], [23.314517863, 42.705370627], [23.315420978, 42.705303288], [23.316380231, 42.70524231], [23.317566014, 42.705160954], [23.317593452, 42.705159082], [23.317593505, 42.705159079], [23.317593498, 42.705159048], [23.317523885, 42.704892756], [23.317426257, 42.70458311], [23.317373448, 42.704421903], [23.317196454, 42.703844495], [23.317034921, 42.703320523], [23.31686371, 42.702777142], [23.316687501, 42.702207364], [23.31649823, 42.701586771], [23.316283674, 42.700918212], [23.316068104, 42.700216187], [23.315699136, 42.698988749]]]]}}, {"type": "Feature", "properties": {"id": 7, "objectid": 10.0, "razshireni": "\"Зелена зона\"", "podzoni_20": "Подзона 6", "razshire_1": "\"Зелена зона\"", "num_2018": 6.0, "shape_leng": 2522.92089768, "shape_area": 384225.098652}, "geometry": {"type": "MultiPolygon", "coordinates": [[[[23.322208565, 42.699401498], [23.321807808, 42.697857946], [23.321667423, 42.69787898], [23.320371056, 42.698009624], [23.319287697, 42.698214224], [23.318174822, 42.698419089], [23.317149558, 42.698607607], [23.315671031, 42.698883116], [23.315667316, 42.698883802], [23.315699136, 42.698988749], [23.316068104, 42.700216187], [23.316283674, 42.700918212], [23.31649823, 42.701586771], [23.316687501, 42.702207364], [23.31686371, 42.702777142], [23.317034921, 42.703320523], [23.317196454, 42.703844495], [23.317373448, 42.704421903], [23.317426257, 42.70458311], [23.317523885, 42.704892756], [23.317593498, 42.705159048], [23.317593505, 42.705159079], [23.31909695, 42.705056503], [23.32016084, 42.704984393], [23.321330599, 42.704904046], [23.322918158, 42.704801114], [23.323805016, 42.704703989], [23.323809694, 42.704703476], [23.323809846, 42.704703455], [23.323808678, 42.704700645], [23.323584463, 42.703936506], [23.323531873, 42.703755992], [23.323247621, 42.702847652], [23.322990952, 42.702038206], [23.322751922, 42.701233187], [23.32245044, 42.700193106], [23.322208565, 42.699401498]]]]}}, {"type": "Feature", "properties": {"id": 8, "objectid": 11.0, "razshireni": "\"Зелена зона\"", "podzoni_20": "Подзона 15", "razshire_1": "\"Зелена зона\"", "num_2018": 15.0, "shape_leng": 2108.85571964, "shape_area": 253809.121131}, "geometry": {"type": "MultiPolygon", "coordinates": [[[[23.329872742, 42.698205843], [23.329567103, 42.699846924], [23.329429138, 42.700647296], [23.329278392, 42.701512826], [23.329020836, 42.702926349], [23.32886346, 42.70382176], [23.328789697, 42.704272263], [23.328784986, 42.704278527], [23.328785225, 42.704278509], [23.329381872, 42.704343888], [23.331442919, 42.704605225], [23.332471643, 42.704739777], [23.33288517, 42.704739902], [23.332891351, 42.704732142], [23.333331926, 42.703244618], [23.333402343, 42.703018589], [23.333566624, 42.702458746], [23.333639827, 42.702210348], [23.333877188, 42.701420272], [23.334224842, 42.700254607], [23.334326892, 42.699912866], [23.334407719, 42.699642188], [23.334558407, 42.699157023], [23.334659448, 42.698815407], [23.334686796, 42.69868725], [23.334686915, 42.698687261], [23.334686811, 42.698687202], [23.333208283, 42.698537641], [23.332232401, 42.698428704], [23.331120357, 42.698333569], [23.329872742, 42.698205843]]]]}}, {"type": "Feature", "properties": {"id": 9, "objectid": 12.0, "razshireni": "\"Зелена зона\"", "podzoni_20": "Подзона 8", "razshire_1": "\"Зелена зона\"", "num_2018": 8.0, "shape_leng": 2911.48135968, "shape_area": 436047.001581}, "geometry": {"type": "MultiPolygon", "coordinates": [[[[23.315670888, 42.698883142], [23.315670993, 42.698882989], [23.315526279, 42.698401292], [23.315468622, 42.69821874], [23.315310697, 42.697676634], [23.315237633, 42.697411499], [23.315243711, 42.697159311], [23.315274384, 42.696704278], [23.315271935, 42.696111196], [23.315272226, 42.695903592], [23.315278318, 42.695732548], [23.315288775, 42.69523864], [23.315281492, 42.694880064], [23.315219579, 42.694607409], [23.315179332, 42.694451867], [23.314976845, 42.693566666], [23.314785144, 42.692782234], [23.31469106, 42.69240363], [23.314507112, 42.691653826], [23.314258678, 42.690610901], [23.314188525, 42.690320244], [23.314021924, 42.689638931], [23.313983666, 42.689489141], [23.31395772, 42.689461016], [23.313948331, 42.689468417], [23.312988663, 42.690230603], [23.312283958, 42.690780084], [23.311599597, 42.691328003], [23.310962558, 42.691821452], [23.310786166, 42.692037385], [23.310717949, 42.692000176], [23.31064575, 42.691962668], [23.310587755, 42.691940104], [23.310515067, 42.69192158], [23.310449243, 42.691912223], [23.310374348, 42.691912835], [23.310307091, 42.691921225], [23.310222006, 42.691947172], [23.310173432, 42.691964939], [23.310114211, 42.691992676], [23.310066553, 42.69202217], [23.310023972, 42.692055626], [23.309996145, 42.692085659], [23.309964971, 42.692130804], [23.309934585, 42.692213139], [23.30992771, 42.692252053], [23.309927658, 42.692301883], [23.309942005, 42.692367361], [23.30997082, 42.692431051], [23.310007208, 42.692482643], [23.310052637, 42.692528906], [23.31008607, 42.692554223], [23.310152731, 42.69259553], [23.310204654, 42.692616945], [23.310098473, 42.692791442], [23.309737946, 42.693352953], [23.309251022, 42.693959066], [23.309000753, 42.694335366], [23.308897556, 42.69456598], [23.308815144, 42.694858559], [23.30879453, 42.69517327], [23.308791371, 42.695301812], [23.308843095, 42.69555007], [23.309048842, 42.69617924], [23.309212209, 42.69681725], [23.30951932, 42.697828438], [23.30972756, 42.698544245], [23.309726677, 42.698546047], [23.30987281, 42.699076574], [23.310079271, 42.699757877], [23.310125233, 42.69991964], [23.310133031, 42.6999168], [23.311557083, 42.699654336], [23.312808856, 42.699418121], [23.313711117, 42.699248041], [23.314624562, 42.699076283], [23.315670888, 42.698883142]]]]}}, {"type": "Feature", "properties": {"id": 10, "objectid": 13.0, "razshireni": "\"Синя зона\"", "podzoni_20": "Подзона 1", "razshire_1": "\"Синя зона\"", "num_2018": 1.0, "shape_leng": 2350.26168026, "shape_area": 285299.229737}, "geometry": {"type": "MultiPolygon", "coordinates": [[[[23.323775433, 42.697563121], [23.324120432, 42.697295297], [23.324708643, 42.697009915], [23.325873927, 42.696492657], [23.325690286, 42.696320789], [23.325051444, 42.695722897], [23.324270533, 42.695006424], [23.32366515, 42.694436483], [23.323423966, 42.69458341], [23.321861684, 42.694780905], [23.320825492, 42.694928953], [23.319659533, 42.69503813], [23.319201402, 42.695093677], [23.318972464, 42.695066235], [23.318306469, 42.695002958], [23.3171125, 42.694888376], [23.315902857, 42.694771566], [23.315250816, 42.69474497], [23.315281492, 42.694880064], [23.315288775, 42.69523864], [23.315278318, 42.695732548], [23.315272226, 42.695903592], [23.315271935, 42.696111196], [23.315274384, 42.696704278], [23.315243711, 42.697159311], [23.315237633, 42.697411499], [23.315310697, 42.697676634], [23.315468622, 42.69821874], [23.315526279, 42.698401292], [23.315670993, 42.698882989], [23.315670888, 42.698883142], [23.315671031, 42.698883116], [23.317149558, 42.698607607], [23.318174822, 42.698419089], [23.319287697, 42.698214224], [23.320371056, 42.698009624], [23.321667423, 42.69787898], [23.323775433, 42.697563121]]]]}}, {"type": "Feature", "properties": {"id": 11, "objectid": 14.0, "razshireni": "\"Синя зона\"", "podzoni_20": "Подзона 5", "razshire_1": "\"Синя зона\"", "num_2018": 5.0, "shape_leng": 2566.74342698, "shape_area": 303329.836666}, "geometry": {"type": "MultiPolygon", "coordinates": [[[[23.334329533, 42.693165496], [23.333076199, 42.693670642], [23.33182047, 42.694187651], [23.330580197, 42.694667593], [23.329325725, 42.695162672], [23.328553658, 42.695482873], [23.327378299, 42.695929948], [23.326317952, 42.696301015], [23.325873133, 42.696491915], [23.325873927, 42.696492657], [23.324708643, 42.697009915], [23.324120432, 42.697295297], [23.323775433, 42.697563121], [23.324387577, 42.697630301], [23.324854028, 42.697694282], [23.325990565, 42.69782195], [23.326908485, 42.697908445], [23.327951269, 42.698016459], [23.32889377, 42.698110104], [23.329872742, 42.698205843], [23.331120357, 42.698333569], [23.332232401, 42.698428704], [23.333208283, 42.698537641], [23.334686825, 42.69868721], [23.334733422, 42.698561731], [23.334940799, 42.697887927], [23.335092987, 42.697384911], [23.335241933, 42.696928446], [23.335311575, 42.69693088], [23.335343589, 42.696926841], [23.33539874, 42.696913915], [23.335467393, 42.696889152], [23.335511706, 42.696865014], [23.335556118, 42.696831604], [23.335594935, 42.696792178], [23.335612504, 42.696764569], [23.335627868, 42.696722751], [23.335631523, 42.696683969], [23.335631812, 42.696656772], [23.335624004, 42.696623061], [23.335605926, 42.696577765], [23.335593185, 42.696557706], [23.335562478, 42.696520621], [23.335496086, 42.696475386], [23.33545312, 42.696452653], [23.335395097, 42.696434943], [23.33532698, 42.696425276], [23.335239374, 42.696423599], [23.335010068, 42.695535394], [23.334693935, 42.69448723], [23.334338562, 42.693193873], [23.334329533, 42.693165496]]]]}}, {"type": "Feature", "properties": {"id": 12, "objectid": 15.0, "razshireni": "\"Синя зона\"", "podzoni_20": "Подзона 2", "razshire_1": "\"Синя зона\"", "num_2018": 2.0, "shape_leng": 2538.04990239, "shape_area": 341945.70279}, "geometry": {"type": "MultiPolygon", "coordinates": [[[[23.318033401, 42.686262712], [23.3180301, 42.686253671], [23.318027435, 42.686254296], [23.318004402, 42.686269904], [23.318004521, 42.686270142], [23.317971192, 42.686296155], [23.317150609, 42.686939674], [23.316685902, 42.687310141], [23.31601189, 42.687838377], [23.315269768, 42.68841986], [23.314680739, 42.688891091], [23.31395772, 42.689461016], [23.313983666, 42.689489141], [23.314021924, 42.689638931], [23.314188525, 42.690320244], [23.314258678, 42.690610901], [23.314507112, 42.691653826], [23.31469106, 42.69240363], [23.314785144, 42.692782234], [23.314976845, 42.693566666], [23.315179332, 42.694451867], [23.315219579, 42.694607409], [23.315250816, 42.69474497], [23.315902857, 42.694771566], [23.3171125, 42.694888376], [23.318306469, 42.695002958], [23.318972464, 42.695066235], [23.319201402, 42.695093677], [23.319659533, 42.69503813], [23.320825492, 42.694928953], [23.320586453, 42.694185773], [23.320343625, 42.693407719], [23.320124899, 42.692701207], [23.319928807, 42.692077639], [23.319712845, 42.691388403], [23.319492743, 42.690636715], [23.319322293, 42.690088561], [23.31902715, 42.689182052], [23.318766911, 42.688359563], [23.318438437, 42.687372106], [23.318033401, 42.686262712]]]]}}, {"type": "Feature", "properties": {"id": 13, "objectid": 18.0, "razshireni": "\"Синя зона\"", "podzoni_20": "Подзона 3", "razshire_1": "\"Синя зона\"", "num_2018": 3.0, "shape_leng": 2983.37254814, "shape_area": 478403.861405}, "geometry": {"type": "MultiPolygon", "coordinates": [[[[23.328924921, 42.688134535], [23.328294889, 42.687603679], [23.32797632, 42.687518192], [23.326876801, 42.687260761], [23.326049785, 42.687042283], [23.324862814, 42.686751492], [23.323748334, 42.686481278], [23.322744687, 42.686219271], [23.321680606, 42.685954963], [23.321161499, 42.685826134], [23.321031548, 42.685841097], [23.320631489, 42.685898511], [23.320406381, 42.685920958], [23.320005603, 42.685964907], [23.319356942, 42.686038022], [23.318794171, 42.686104486], [23.318535968, 42.68613498], [23.318337191, 42.686181619], [23.318210658, 42.686211435], [23.318160597, 42.686222617], [23.318059756, 42.686246524], [23.3180301, 42.686253671], [23.318033401, 42.686262712], [23.318438437, 42.687372106], [23.318766911, 42.688359563], [23.31902715, 42.689182052], [23.319322293, 42.690088561], [23.319492743, 42.690636715], [23.319712845, 42.691388403], [23.319928807, 42.692077639], [23.320124899, 42.692701207], [23.320343625, 42.693407719], [23.320586453, 42.694185773], [23.320825492, 42.694928953], [23.321861684, 42.694780905], [23.322103449, 42.694750344], [23.322579036, 42.694068843], [23.322855576, 42.693676015], [23.323791883, 42.692675773], [23.323954987, 42.692494626], [23.324906122, 42.691483655], [23.32594903, 42.690621265], [23.326309524, 42.690314224], [23.32742791, 42.6893746], [23.328806284, 42.688234142], [23.328924921, 42.688134535]]]]}}, {"type": "Feature", "properties": {"id": 14, "objectid": 19.0, "razshireni": "\"Синя зона\"", "podzoni_20": "Подзона 4", "razshire_1": "\"Синя зона\"", "num_2018": 4.0, "shape_leng": 2864.18196986, "shape_area": 462519.033111}, "geometry": {"type": "MultiPolygon", "coordinates": [[[[23.334329533, 42.693165496], [23.334330446, 42.69316527], [23.334213307, 42.69279387], [23.334089034, 42.692409657], [23.334009482, 42.692303534], [23.3339904, 42.692283896], [23.333839423, 42.692163151], [23.333109923, 42.69155525], [23.332497763, 42.691052471], [23.331873364, 42.690533714], [23.331611141, 42.690323636], [23.331304248, 42.690066657], [23.330511047, 42.689423829], [23.3297959, 42.688837366], [23.329598845, 42.688682733], [23.328924921, 42.688134535], [23.328806284, 42.688234142], [23.32742791, 42.6893746], [23.326309524, 42.690314224], [23.32594903, 42.690621265], [23.324906122, 42.691483655], [23.323954987, 42.692494626], [23.323791883, 42.692675773], [23.322855576, 42.693676015], [23.322579036, 42.694068843], [23.322103449, 42.694750344], [23.32210498, 42.69475015], [23.323423966, 42.69458341], [23.32366515, 42.694436483], [23.324270533, 42.695006424], [23.325051444, 42.695722897], [23.325690286, 42.696320789], [23.325873133, 42.696491915], [23.326317952, 42.696301015], [23.327378299, 42.695929948], [23.328553658, 42.695482873], [23.329325725, 42.695162672], [23.330580197, 42.694667593], [23.33182047, 42.694187651], [23.333076199, 42.693670642], [23.334329533, 42.693165496]]]]}}, {"type": "Feature", "properties": {"id": 15, "objectid": 20.0, "razshireni": null, "podzoni_20": null, "razshire_1": null, "num_2018": 0.0, "shape_leng": 4286.94224995, "shape_area": 863053.890706}, "geometry": {"type": "MultiPolygon", "coordinates": [[[[23.347581664, 42.683242233], [23.347475581, 42.683125853], [23.347350293, 42.68298297], [23.347123966, 42.682682144], [23.346966163, 42.682508923], [23.34689974, 42.682410716], [23.346716865, 42.682104777], [23.346494285, 42.6818117], [23.346194839, 42.681380316], [23.345935494, 42.681038198], [23.345729643, 42.680790551], [23.345601448, 42.680643514], [23.345489197, 42.680518401], [23.345404366, 42.680430866], [23.345317898, 42.680341644], [23.345194165, 42.68021944], [23.345128357, 42.680157804], [23.345023863, 42.680059932], [23.344856916, 42.679909414], [23.34469387, 42.679772763], [23.344432695, 42.679555161], [23.3442135, 42.679371652], [23.344006608, 42.679198331], [23.343673169, 42.678920276], [23.343320873, 42.678629635], [23.343140571, 42.678480753], [23.342892791, 42.678275453], [23.342597193, 42.678024872], [23.34203807, 42.677563656], [23.341844698, 42.677395032], [23.341834798, 42.67739514], [23.341752773, 42.67746128], [23.340793157, 42.678249887], [23.339876261, 42.679010597], [23.339357169, 42.679442466], [23.33853001, 42.680130618], [23.337677415, 42.680839908], [23.336633981, 42.681697485], [23.335810406, 42.682367852], [23.335802124, 42.68247796], [23.335759587, 42.682513185], [23.33563628, 42.68257683], [23.335044722, 42.683067134], [23.333954985, 42.683972725], [23.333725518, 42.684161839], [23.332318811, 42.685338396], [23.331367153, 42.686133089], [23.331287553, 42.686230051], [23.331835247, 42.686591844], [23.332475979, 42.687008562], [23.332755474, 42.686779242], [23.333362159, 42.687160567], [23.333543028, 42.686997165], [23.333992864, 42.686590764], [23.334425604, 42.686416179], [23.334986837, 42.686370874], [23.33552456, 42.686474637], [23.336022498, 42.68671086], [23.336371433, 42.686942309], [23.336776379, 42.687309288], [23.336918936, 42.687604928], [23.336863444, 42.688004363], [23.336681152, 42.688384004], [23.33625559, 42.688692902], [23.335689203, 42.689177715], [23.336356952, 42.689612887], [23.337355253, 42.690245543], [23.337524594, 42.690334478], [23.338928236, 42.689317661], [23.341048619, 42.687848709], [23.343046218, 42.686469975], [23.345306059, 42.684859781], [23.347581664, 42.683242233]]]]}}, {"type": "Feature", "properties": {"id": 16, "objectid": 21.0, "razshireni": "\"Зелена зона\"", "podzoni_20": "Подзона 30", "razshire_1": "Предложение за разширение", "num_2018": 30.0, "shape_leng": 2292.02818446, "shape_area": 286629.774277}, "geometry": {"type": "MultiPolygon", "coordinates": [[[[23.306678326, 42.689816393], [23.308418355, 42.68843936], [23.308401387, 42.688452601], [23.310297549, 42.686945514], [23.310306395, 42.686938814], [23.310344167, 42.686910206], [23.310416149, 42.686855688], [23.310361914, 42.686833264], [23.309856378, 42.686584137], [23.309803645, 42.686570139], [23.309587951, 42.686512886], [23.307971223, 42.686088253], [23.307826299, 42.686048265], [23.306808882, 42.685786311], [23.305330626, 42.685412915], [23.304329975, 42.685147642], [23.303101273, 42.684818819], [23.301523736, 42.684436904], [23.301398121, 42.684408914], [23.300768759, 42.684327398], [23.300740796, 42.684439816], [23.300624481, 42.684840423], [23.300444848, 42.685522459], [23.300421598, 42.685597843], [23.300385095, 42.685716196], [23.300344658, 42.685812968], [23.300284183, 42.685942851], [23.300213293, 42.686076043], [23.300111099, 42.686237947], [23.299934296, 42.686469233], [23.29982636, 42.686592495], [23.299677115, 42.686742528], [23.302052307, 42.687930787], [23.305093751, 42.689510563], [23.306288744, 42.690130976], [23.306307326, 42.690140623], [23.306422284, 42.690035829], [23.306537241, 42.689931035], [23.306678326, 42.689816393]], [[23.301362089, 42.684579964], [23.301362327, 42.684578837], [23.301363573, 42.684580298], [23.301362089, 42.684579964]]]]}}, {"type": "Feature", "properties": {"id": 17, "objectid": 22.0, "razshireni": "\"Зелена зона\"", "podzoni_20": "Подзона 10", "razshire_1": "\"Зелена зона\"", "num_2018": 10.0, "shape_leng": 2099.99474221, "shape_area": 238031.3293}, "geometry": {"type": "MultiPolygon", "coordinates": [[[[23.318210454, 42.686211481], [23.318105348, 42.685971891], [23.317969259, 42.685816802], [23.317766959, 42.685673082], [23.317368736, 42.685433284], [23.317148791, 42.685306577], [23.317611517, 42.685256803], [23.317657353, 42.685229985], [23.317461012, 42.684371879], [23.317307854, 42.683545415], [23.317027039, 42.683553643], [23.316433354, 42.683729929], [23.31599028, 42.683871989], [23.315501656, 42.683384608], [23.315138286, 42.683055461], [23.314151852, 42.683845709], [23.312868024, 42.684925124], [23.312391453, 42.685296661], [23.31186362, 42.685715413], [23.311346318, 42.686125867], [23.310883932, 42.68649384], [23.310606583, 42.686711456], [23.310297549, 42.686945514], [23.310397481, 42.686996128], [23.310518463, 42.687072681], [23.311291107, 42.687609105], [23.311965321, 42.688068191], [23.312633716, 42.688526182], [23.313256802, 42.688954316], [23.313962735, 42.689457064], [23.314680739, 42.688891091], [23.315269768, 42.68841986], [23.31601189, 42.687838377], [23.316685902, 42.687310141], [23.317150609, 42.686939674], [23.317971192, 42.686296155], [23.318004521, 42.686270142], [23.318004402, 42.686269904], [23.318027435, 42.686254296], [23.3180301, 42.686253671], [23.318059756, 42.686246524], [23.318160597, 42.686222617], [23.318210454, 42.686211481]]]]}}, {"type": "Feature", "properties": {"id": 18, "objectid": 23.0, "razshireni": "\"Зелена зона\"", "podzoni_20": "Подзона 11", "razshire_1": "\"Зелена зона\"", "num_2018": 11.0, "shape_leng": 3008.97066401, "shape_area": 339442.856086}, "geometry": {"type": "MultiPolygon", "coordinates": [[[[23.320604603, 42.68262783], [23.320491804, 42.683066491], [23.320502663, 42.683339871], [23.320666104, 42.684210358], [23.320835806, 42.685017302], [23.3210102, 42.685843555], [23.321010904, 42.68584406], [23.321031548, 42.685841097], [23.321161499, 42.685826134], [23.321680606, 42.685954963], [23.322744687, 42.686219271], [23.323748334, 42.686481278], [23.324862814, 42.686751492], [23.326049785, 42.687042283], [23.326876801, 42.687260761], [23.32797632, 42.687518192], [23.328294889, 42.687603679], [23.328924921, 42.688134535], [23.329598845, 42.688682733], [23.3297959, 42.688837366], [23.330511047, 42.689423829], [23.331304248, 42.690066657], [23.331451383, 42.690189861], [23.332578977, 42.689461022], [23.333705137, 42.688788114], [23.334410472, 42.688349153], [23.333678718, 42.687787028], [23.332962503, 42.68732498], [23.331835247, 42.686591844], [23.331224775, 42.68618858], [23.331222075, 42.686187238], [23.330999374, 42.686053717], [23.330235965, 42.685737278], [23.329804124, 42.68559531], [23.327664997, 42.684903537], [23.326395386, 42.684489759], [23.324315248, 42.683811746], [23.323830193, 42.683652008], [23.323043029, 42.683385848], [23.320827344, 42.682698318], [23.320604603, 42.68262783]]]]}}, {"type": "Feature", "properties": {"id": 19, "objectid": 24.0, "razshireni": null, "podzoni_20": null, "razshire_1": null, "num_2018": 0.0, "shape_leng": 1707.0019221, "shape_area": 139314.714085}, "geometry": {"type": "MultiPolygon", "coordinates": [[[[23.315138286, 42.683055461], [23.315501656, 42.683384608], [23.31599028, 42.683871989], [23.316433354, 42.683729929], [23.317027039, 42.683553643], [23.317307854, 42.683545415], [23.317461012, 42.684371879], [23.317657353, 42.685229985], [23.317611517, 42.685256803], [23.317148791, 42.685306577], [23.317368736, 42.685433284], [23.317766959, 42.685673082], [23.317969259, 42.685816802], [23.318105348, 42.685971891], [23.318210454, 42.686211481], [23.318210658, 42.686211435], [23.318337191, 42.686181619], [23.318535968, 42.68613498], [23.318794171, 42.686104486], [23.319356942, 42.686038022], [23.320005603, 42.685964907], [23.320406381, 42.685920958], [23.320631489, 42.685898511], [23.321010904, 42.68584406], [23.3210102, 42.685843555], [23.320835806, 42.685017302], [23.320666104, 42.684210358], [23.320502663, 42.683339871], [23.320491804, 42.683066491], [23.320604603, 42.68262783], [23.318937574, 42.682100266], [23.318168069, 42.681912557], [23.317781568, 42.681857131], [23.317427325, 42.681858562], [23.317051181, 42.681910797], [23.316666581, 42.682009634], [23.316150449, 42.682287852], [23.315971242, 42.682413233], [23.31515578, 42.683041446], [23.315138286, 42.683055461]]]]}}, {"type": "Feature", "properties": {"id": 20, "objectid": 30.0, "razshireni": "\"Зелена зона\"", "podzoni_20": "Подзона 20", "razshire_1": "\"Зелена зона\"", "num_2018": 20.0, "shape_leng": 4168.97996824, "shape_area": 164032.682947}, "geometry": {"type": "MultiPolygon", "coordinates": [[[[23.315100678, 42.68308559], [23.314625901, 42.682643085], [23.314000689, 42.682040755], [23.313284302, 42.681359909], [23.313216137, 42.68129643], [23.313068439, 42.681163352], [23.312899671, 42.681018562], [23.312718963, 42.680863527], [23.31250157, 42.680676589], [23.312375696, 42.680565381], [23.31227066, 42.680471346], [23.312096028, 42.680302693], [23.311859715, 42.680081626], [23.311673415, 42.679905356], [23.31142334, 42.679657595], [23.311258788, 42.679497457], [23.311153846, 42.679397466], [23.31105142, 42.67926421], [23.311005565, 42.679216473], [23.310894893, 42.679091074], [23.310806574, 42.678981321], [23.310768228, 42.678898783], [23.310730514, 42.678816144], [23.31069044, 42.678727778], [23.310618286, 42.678554361], [23.310525113, 42.678329928], [23.310491104, 42.678244508], [23.310408765, 42.678048588], [23.310320907, 42.677830022], [23.31023159, 42.677608649], [23.310133729, 42.677368877], [23.310062749, 42.67719712], [23.309983546, 42.67700546], [23.309938252, 42.676895855], [23.309876504, 42.676746435], [23.309799433, 42.676559931], [23.309665522, 42.676225939], [23.309607564, 42.676088639], [23.309532292, 42.675901861], [23.309465314, 42.675737073], [23.309403286, 42.675586337], [23.309305094, 42.675347023], [23.309204867, 42.675098467], [23.309088812, 42.674811177], [23.308797648, 42.674889942], [23.308811546, 42.674923112], [23.308916203, 42.675176718], [23.308978704, 42.675347197], [23.309054446, 42.675517486], [23.309133971, 42.675709223], [23.309251617, 42.675999376], [23.30936824, 42.676265123], [23.309485176, 42.676555549], [23.309557752, 42.676731947], [23.309676239, 42.677022863], [23.309833007, 42.677406438], [23.309935727, 42.677654814], [23.310108565, 42.678073365], [23.31026114, 42.678440906], [23.310326557, 42.678596569], [23.310403938, 42.678782082], [23.310490577, 42.678977397], [23.310556286, 42.679094962], [23.310733843, 42.679333103], [23.310867828, 42.679468398], [23.311011215, 42.679604043], [23.312069726, 42.680596615], [23.312812429, 42.681351362], [23.31252932, 42.681345157], [23.311981186, 42.681326901], [23.311512467, 42.681311917], [23.311065238, 42.681298773], [23.310627975, 42.681285371], [23.310270187, 42.681273585], [23.309993656, 42.68126062], [23.309709652, 42.681240781], [23.309471688, 42.681214586], [23.309028958, 42.681151291], [23.308771201, 42.681105772], [23.308398698, 42.681030445], [23.307964929, 42.680928774], [23.307469401, 42.680783651], [23.306747324, 42.680540245], [23.306344166, 42.680398801], [23.305823129, 42.680215183], [23.305381301, 42.680061049], [23.304872104, 42.679883409], [23.304368997, 42.679708951], [23.303877274, 42.679538903], [23.303527785, 42.679427431], [23.303100199, 42.679305464], [23.302330332, 42.679101831], [23.302120013, 42.679655924], [23.301917663, 42.680364342], [23.302780705, 42.680564042], [23.304069625, 42.680864931], [23.305129625, 42.681110996], [23.306064817, 42.681330242], [23.307312768, 42.68162252], [23.308744693, 42.681955843], [23.309944385, 42.682234653], [23.310998378, 42.682482666], [23.311688185, 42.682646703], [23.311901891, 42.682695237], [23.312291213, 42.682961474], [23.313233504, 42.683610684], [23.313895086, 42.684061596], [23.314151852, 42.683845709], [23.315100678, 42.68308559]]]]}}, {"type": "Feature", "properties": {"id": 21, "objectid": 31.0, "razshireni": "\"Зелена зона\"", "podzoni_20": "Подзона 13", "razshire_1": "\"Зелена зона\"", "num_2018": 13.0, "shape_leng": 2867.99427837, "shape_area": 171397.251912}, "geometry": {"type": "MultiPolygon", "coordinates": [[[[23.347372014, 42.699001009], [23.34728558, 42.698633065], [23.34722865, 42.698364564], [23.347249929, 42.697867309], [23.347247486, 42.69763848], [23.346895908, 42.697810678], [23.346788103, 42.697880428], [23.345625496, 42.69863261], [23.34557035, 42.69801281], [23.345562061, 42.697564524], [23.345358821, 42.697562163], [23.34536877, 42.698020927], [23.341341678, 42.698183], [23.339580804, 42.698255514], [23.339052804, 42.698150248], [23.338602136, 42.698293483], [23.338098334, 42.698307501], [23.33807045, 42.697699036], [23.33801488, 42.696591848], [23.338015723, 42.696589538], [23.337880117, 42.696596431], [23.336144748, 42.696661946], [23.335631713, 42.696688637], [23.335631084, 42.696688621], [23.335627868, 42.696722751], [23.335612504, 42.696764569], [23.335594935, 42.696792178], [23.335556118, 42.696831604], [23.335511706, 42.696865014], [23.335467393, 42.696889152], [23.33539874, 42.696913915], [23.335343589, 42.696926841], [23.335311575, 42.69693088], [23.335241933, 42.696928446], [23.335092987, 42.697384911], [23.334940799, 42.697887927], [23.334733422, 42.698561731], [23.334686838, 42.698687217], [23.334686915, 42.698687261], [23.336345168, 42.698842147], [23.33798045, 42.699006195], [23.338566741, 42.69906949], [23.34025393, 42.699234796], [23.340579734, 42.699268903], [23.341824827, 42.699388132], [23.342435934, 42.69944239], [23.343946813, 42.699582128], [23.344127219, 42.699614321], [23.34428576, 42.699680723], [23.344410992, 42.699746382], [23.344751275, 42.699935458], [23.344972393, 42.699870593], [23.345447076, 42.699786358], [23.345915147, 42.69969965], [23.34639105, 42.699607184], [23.346683295, 42.699551248], [23.346968609, 42.699497467], [23.347131134, 42.699467069], [23.347409707, 42.699414519], [23.347409808, 42.699414501], [23.347471175, 42.699403112], [23.347372014, 42.699001009]]]]}}, {"type": "Feature", "properties": {"id": 22, "objectid": 32.0, "razshireni": null, "podzoni_20": null, "razshire_1": null, "num_2018": 0.0, "shape_leng": 1459.48919918, "shape_area": 123553.692408}, "geometry": {"type": "MultiPolygon", "coordinates": [[[[23.337524594, 42.690334478], [23.337355253, 42.690245543], [23.336356952, 42.689612887], [23.335405147, 42.688992592], [23.334410472, 42.688349153], [23.333705137, 42.688788114], [23.332578977, 42.689461022], [23.331451383, 42.690189861], [23.331611141, 42.690323636], [23.331873364, 42.690533714], [23.332497763, 42.691052471], [23.333109923, 42.69155525], [23.333839423, 42.692163151], [23.3339904, 42.692283896], [23.334009482, 42.692303534], [23.334089034, 42.692409657], [23.334213307, 42.69279387], [23.334295962, 42.693055938], [23.334296867, 42.693055754], [23.335737851, 42.691818366], [23.336974043, 42.690770939], [23.33739326, 42.690434953], [23.337524594, 42.690334478]]]]}}, {"type": "Feature", "properties": {"id": 23, "objectid": 33.0, "razshireni": "\"Зелена зона\"", "podzoni_20": "Подзона 12", "razshire_1": "\"Зелена зона\"", "num_2018": 12.0, "shape_leng": 2921.8923351, "shape_area": 529660.198855}, "geometry": {"type": "MultiPolygon", "coordinates": [[[[23.338016942, 42.696589476], [23.33930884, 42.696535748], [23.340054565, 42.696503136], [23.342007773, 42.696415702], [23.34231959, 42.696401669], [23.344144979, 42.696323708], [23.344594336, 42.696301213], [23.346567566, 42.696222587], [23.346999401, 42.696195295], [23.347015474, 42.696194254], [23.347235582, 42.696179991], [23.347157232, 42.695835449], [23.347094558, 42.69554442], [23.346961858, 42.694938605], [23.346861267, 42.694479794], [23.346756147, 42.693994437], [23.346713659, 42.693872844], [23.34666552, 42.693764037], [23.346588326, 42.693627053], [23.346496197, 42.693515939], [23.346398512, 42.69342211], [23.346020202, 42.693185454], [23.345190207, 42.692674948], [23.344098466, 42.692011081], [23.343465533, 42.691856175], [23.342949609, 42.691741102], [23.341519044, 42.691422604], [23.340341592, 42.691157763], [23.339897733, 42.691058353], [23.338852917, 42.690827069], [23.33830071, 42.690672303], [23.337652405, 42.690401602], [23.337524594, 42.690334478], [23.33739326, 42.690434953], [23.336974043, 42.690770939], [23.335737851, 42.691818366], [23.334296867, 42.693055754], [23.334295962, 42.693055938], [23.334320662, 42.69313425], [23.334330446, 42.69316527], [23.334329533, 42.693165496], [23.334330914, 42.693169838], [23.334338562, 42.693193873], [23.334693935, 42.69448723], [23.335010068, 42.695535394], [23.335239374, 42.696423599], [23.33532698, 42.696425276], [23.335395097, 42.696434943], [23.33545312, 42.696452653], [23.335496086, 42.696475386], [23.335562478, 42.696520621], [23.335593185, 42.696557706], [23.335605926, 42.696577765], [23.335624004, 42.696623061], [23.335631812, 42.696656772], [23.335631523, 42.696683969], [23.335631084, 42.696688621], [23.335631713, 42.696688637], [23.336144748, 42.696661946], [23.337880117, 42.696596431], [23.338016942, 42.696589476]]]]}}, {"type": "Feature", "properties": {"id": 24, "objectid": 37.0, "razshireni": "\"Зелена зона\"", "podzoni_20": "Подзона 25", "razshire_1": "\"Зелена зона\"", "num_2018": 25.0, "shape_leng": 3090.72459554, "shape_area": 470000.109729}, "geometry": {"type": "MultiPolygon", "coordinates": [[[[23.347817787, 42.683467475], [23.347581664, 42.683242233], [23.347492538, 42.683305588], [23.345306059, 42.684859781], [23.343046218, 42.686469975], [23.341048619, 42.687848709], [23.338928236, 42.689317661], [23.337524594, 42.690334478], [23.337652405, 42.690401602], [23.337942555, 42.690522756], [23.33812886, 42.690600547], [23.33830071, 42.690672303], [23.338852917, 42.690827069], [23.339897733, 42.691058353], [23.340341592, 42.691157763], [23.341519044, 42.691422604], [23.342949609, 42.691741102], [23.343465533, 42.691856175], [23.343709923, 42.691915988], [23.34380692, 42.691475063], [23.343906194, 42.691069583], [23.344037022, 42.690991467], [23.344498842, 42.690719246], [23.345342147, 42.690224093], [23.345808028, 42.689951233], [23.346285378, 42.689669618], [23.346956853, 42.689272479], [23.347351223, 42.689041195], [23.347945707, 42.688690468], [23.348611171, 42.688299541], [23.349444373, 42.687811711], [23.349863062, 42.6875631], [23.350716827, 42.687063194], [23.351404885, 42.686661895], [23.351566599, 42.686556873], [23.351619071, 42.686522796], [23.351659797, 42.686496347], [23.351731325, 42.686441376], [23.35160964, 42.6863606], [23.351511369, 42.686291124], [23.351359994, 42.686178302], [23.351019086, 42.685905145], [23.350891303, 42.685826712], [23.350799753, 42.685758522], [23.350344971, 42.685455394], [23.349548588, 42.684824534], [23.348846467, 42.684264644], [23.348693993, 42.68414421], [23.348619639, 42.68408548], [23.348526195, 42.684011671], [23.348467021, 42.683964931], [23.348417106, 42.683929766], [23.348333271, 42.68387205], [23.348247512, 42.683818914], [23.348200569, 42.683789048], [23.348133229, 42.683740512], [23.348067971, 42.683689807], [23.347959852, 42.683598834], [23.347896107, 42.683541705], [23.347840379, 42.683489112], [23.347817787, 42.683467475]]]]}}, {"type": "Feature", "properties": {"id": 25, "objectid": 46.0, "razshireni": "\"Зелена зона\"", "podzoni_20": "Подзона 21", "razshire_1": "\"Зелена зона\"", "num_2018": 21.0, "shape_leng": 3502.21674495, "shape_area": 550700.685443}, "geometry": {"type": "MultiPolygon", "coordinates": [[[[23.321261267, 42.672193635], [23.32094437, 42.672174533], [23.320533283, 42.672042545], [23.320354355, 42.671944025], [23.313977993, 42.670181137], [23.31384126, 42.670168219], [23.313842518, 42.670255885], [23.312964404, 42.669766406], [23.312476446, 42.669380714], [23.311680691, 42.669890344], [23.311587367, 42.669950111], [23.311521663, 42.669960572], [23.311457794, 42.669913915], [23.311203051, 42.669448014], [23.311157675, 42.669471583], [23.311589416, 42.670249567], [23.312012193, 42.670934697], [23.311705295, 42.671097278], [23.311647364, 42.671193948], [23.311636086, 42.671358251], [23.311626876, 42.671359874], [23.311604727, 42.671363778], [23.311335699, 42.671411194], [23.310856057, 42.671224199], [23.310261937, 42.67151731], [23.31017539, 42.671560007], [23.310149753, 42.67159758], [23.309715359, 42.671744314], [23.309337356, 42.671871997], [23.309281292, 42.671946423], [23.30941056, 42.672333152], [23.30945198, 42.672457066], [23.309432003, 42.672479588], [23.309432278, 42.672479833], [23.309523317, 42.672519395], [23.309591716, 42.67255476], [23.309751459, 42.672641573], [23.31003809, 42.672802203], [23.310263494, 42.672929464], [23.310396885, 42.673015444], [23.310669418, 42.673153706], [23.310925674, 42.673293629], [23.311092128, 42.673392264], [23.311092011, 42.673392626], [23.311362134, 42.673534849], [23.311744206, 42.673748113], [23.312121172, 42.673958524], [23.311995371, 42.674074702], [23.311930927, 42.674109805], [23.311930297, 42.674128291], [23.311955047, 42.67421217], [23.311953738, 42.674273145], [23.31195296, 42.674309348], [23.312315072, 42.674330986], [23.312418324, 42.674337156], [23.312790567, 42.674420358], [23.31310802, 42.674552225], [23.313520527, 42.674770962], [23.314137338, 42.675103043], [23.31510975, 42.675632528], [23.316637089, 42.676471944], [23.317793003, 42.677075397], [23.318431762, 42.677408856], [23.319040758, 42.677726771], [23.319618498, 42.678017199], [23.320152025, 42.678209299], [23.320459656, 42.678306867], [23.321087456, 42.678500489], [23.321575744, 42.678651375], [23.321576748, 42.678656068], [23.321720835, 42.678652112], [23.321774327, 42.678366862], [23.321897637, 42.677573758], [23.322045153, 42.676599136], [23.322125701, 42.675921758], [23.322166361, 42.6751828], [23.32219816, 42.674498979], [23.322130464, 42.674242671], [23.321855078, 42.673643068], [23.321586369, 42.672954411], [23.321400673, 42.672519864], [23.321261267, 42.672193635]]]]}}, {"type": "Feature", "properties": {"id": 26, "objectid": 48.0, "razshireni": null, "podzoni_20": null, "razshire_1": null, "num_2018": 0.0, "shape_leng": 1982.29922571, "shape_area": 133503.787006}, "geometry": {"type": "MultiPolygon", "coordinates": [[[[23.34536877, 42.698020927], [23.345358821, 42.697562163], [23.345562061, 42.697564524], [23.34557035, 42.69801281], [23.345625496, 42.69863261], [23.346788103, 42.697880428], [23.346895908, 42.697810678], [23.346931165, 42.697721351], [23.346934343, 42.697636201], [23.346916142, 42.697541831], [23.346658984, 42.69642039], [23.346638351, 42.6963428], [23.346590578, 42.696328496], [23.344606882, 42.696382036], [23.342336706, 42.696485659], [23.338019034, 42.696674616], [23.33807045, 42.697699036], [23.338098334, 42.698307501], [23.338602136, 42.698293483], [23.339052804, 42.698150248], [23.339580804, 42.698255514], [23.341341678, 42.698183], [23.34536877, 42.698020927]]]]}}, {"type": "Feature", "properties": {"id": 27, "objectid": 49.0, "razshireni": null, "podzoni_20": null, "razshire_1": null, "num_2018": 0.0, "shape_leng": 1541.28673618, "shape_area": 44073.6693175}, "geometry": {"type": "MultiPolygon", "coordinates": [[[[23.336681152, 42.688384004], [23.336863444, 42.688004363], [23.336918936, 42.687604928], [23.336776379, 42.687309288], [23.336371433, 42.686942309], [23.336022498, 42.68671086], [23.33552456, 42.686474637], [23.334986837, 42.686370874], [23.334425604, 42.686416179], [23.333992864, 42.686590764], [23.333543028, 42.686997165], [23.333362159, 42.687160567], [23.332755474, 42.686779242], [23.332475979, 42.687008562], [23.332962503, 42.68732498], [23.333678718, 42.687787028], [23.334410472, 42.688349153], [23.334680108, 42.688523578], [23.335166873, 42.688838459], [23.335405147, 42.688992592], [23.335689203, 42.689177715], [23.33625559, 42.688692902], [23.336681152, 42.688384004]], [[23.334244121, 42.68734064], [23.3343017, 42.68712676], [23.334417266, 42.68699771], [23.334592962, 42.68691705], [23.334789159, 42.686870235], [23.334951, 42.686872101], [23.33522549, 42.686947272], [23.335429331, 42.687052807], [23.335643348, 42.687181781], [23.336069646, 42.68748994], [23.336236227, 42.687660012], [23.336258302, 42.687820024], [23.336222783, 42.687964916], [23.336115421, 42.688107507], [23.335882914, 42.688236132], [23.335583632, 42.688276328], [23.335445604, 42.688251993], [23.335202946, 42.688158792], [23.334816806, 42.687917876], [23.334483878, 42.687700121], [23.334339256, 42.687540544], [23.334244121, 42.68734064]]]]}}, {"type": "Feature", "properties": {"id": 28, "objectid": 50.0, "razshireni": null, "podzoni_20": null, "razshire_1": null, "num_2018": 0.0, "shape_leng": 486.053161384, "shape_area": 16713.0204073}, "geometry": {"type": "MultiPolygon", "coordinates": [[[[23.335882914, 42.688236132], [23.336115421, 42.688107507], [23.336222783, 42.687964916], [23.336258302, 42.687820024], [23.336236227, 42.687660012], [23.336069646, 42.68748994], [23.335643348, 42.687181781], [23.335429331, 42.687052807], [23.33522549, 42.686947272], [23.334951, 42.686872101], [23.334789159, 42.686870235], [23.334592962, 42.68691705], [23.334417266, 42.68699771], [23.3343017, 42.68712676], [23.334244121, 42.68734064], [23.334339256, 42.687540544], [23.334483878, 42.687700121], [23.334816806, 42.687917876], [23.335202946, 42.688158792], [23.335445604, 42.688251993], [23.335583632, 42.688276328], [23.335882914, 42.688236132]]]]}}, {"type": "Feature", "properties": {"id": 29, "objectid": 53.0, "razshireni": null, "podzoni_20": null, "razshire_1": null, "num_2018": 0.0, "shape_leng": 1384.99663478, "shape_area": 97278.8358836}, "geometry": {"type": "MultiPolygon", "coordinates": [[[[23.336048837, 42.67658945], [23.334240007, 42.676484005], [23.334189418, 42.677005699], [23.333040097, 42.679330444], [23.332625715, 42.68016857], [23.332664404, 42.680426956], [23.335597299, 42.681171848], [23.335674465, 42.6811996], [23.3356769, 42.681169351], [23.335840302, 42.679140088], [23.335950224, 42.677794813], [23.336048837, 42.67658945]]]]}}, {"type": "Feature", "properties": {"id": 30, "objectid": 57.0, "razshireni": "\"Зелена зона\"", "podzoni_20": "Подзона 23", "razshire_1": "\"Зелена зона\"", "num_2018": 23.0, "shape_leng": 2196.68828522, "shape_area": 322201.55593}, "geometry": {"type": "MultiPolygon", "coordinates": [[[[23.321720835, 42.678652112], [23.321576748, 42.678656068], [23.321504031, 42.679068539], [23.32138511, 42.679786349], [23.321284508, 42.680393579], [23.321262028, 42.680529264], [23.321141809, 42.680923283], [23.321006377, 42.68136715], [23.320832601, 42.681936684], [23.320743505, 42.682228681], [23.320641907, 42.682561651], [23.320620426, 42.682632047], [23.320745684, 42.682672476], [23.320827344, 42.682698318], [23.323043029, 42.683385848], [23.323830193, 42.683652008], [23.324315248, 42.683811746], [23.326395386, 42.684489759], [23.326453723, 42.684508772], [23.326477382, 42.684500359], [23.327079718, 42.683688744], [23.327801241, 42.682598018], [23.327916287, 42.682424099], [23.328180844, 42.681779243], [23.327780369, 42.680308323], [23.327119333, 42.678128958], [23.32400833, 42.678240868], [23.322922666, 42.678279903], [23.321752134, 42.67848521], [23.321720835, 42.678652112]]]]}}, {"type": "Feature", "properties": {"id": 31, "objectid": 58.0, "razshireni": "\"Зелена зона\"", "podzoni_20": "Подзона 24", "razshire_1": "\"Зелена зона\"", "num_2018": 24.0, "shape_leng": 4851.39581298, "shape_area": 495047.056657}, "geometry": {"type": "MultiPolygon", "coordinates": [[[[23.335810406, 42.682367852], [23.33599437, 42.679938045], [23.336265808, 42.67658524], [23.337631818, 42.676666425], [23.337646927, 42.676475369], [23.33606505, 42.676391271], [23.334735833, 42.676301996], [23.33426075, 42.676270083], [23.334074484, 42.676257571], [23.333703683, 42.676232661], [23.333211169, 42.676789778], [23.332691543, 42.676950033], [23.330934647, 42.677491843], [23.329373077, 42.677973385], [23.327119333, 42.678128958], [23.327780369, 42.680308323], [23.328180844, 42.681779243], [23.327916287, 42.682424099], [23.327801241, 42.682598018], [23.327079718, 42.683688744], [23.326477382, 42.684500359], [23.326453723, 42.684508772], [23.327664997, 42.684903537], [23.329804124, 42.68559531], [23.330235965, 42.685737278], [23.330504058, 42.685848406], [23.330999374, 42.686053717], [23.331222075, 42.686187238], [23.331224775, 42.68618858], [23.331287553, 42.686230051], [23.331367153, 42.686133089], [23.332318811, 42.685338396], [23.333725518, 42.684161839], [23.333954985, 42.683972725], [23.335044722, 42.683067134], [23.335578797, 42.682624475], [23.33563628, 42.68257683], [23.335759587, 42.682513185], [23.335802124, 42.68247796], [23.335810406, 42.682367852]], [[23.334189418, 42.677005699], [23.334240007, 42.676484005], [23.336048837, 42.67658945], [23.335950224, 42.677794813], [23.335840302, 42.679140088], [23.3356769, 42.681169351], [23.335674465, 42.6811996], [23.335597299, 42.681171848], [23.332664404, 42.680426956], [23.332625715, 42.68016857], [23.333040097, 42.679330444], [23.334189418, 42.677005699]]]]}}, {"type": "Feature", "properties": {"id": 32, "objectid": 59.0, "razshireni": "\"Зелена зона\"", "podzoni_20": "Подзона 22", "razshire_1": "\"Зелена зона\"", "num_2018": 22.0, "shape_leng": 3028.77252545, "shape_area": 387981.301792}, "geometry": {"type": "MultiPolygon", "coordinates": [[[[23.321822887, 42.672303547], [23.321684098, 42.672155981], [23.321664247, 42.672134906], [23.321639444, 42.672108069], [23.321604534, 42.672053464], [23.321568747, 42.671987564], [23.321523366, 42.671892925], [23.321491328, 42.671823501], [23.321457324, 42.671747157], [23.321445008, 42.671708219], [23.3214222, 42.671636112], [23.321414433, 42.671611556], [23.321380014, 42.671524919], [23.321210125, 42.671557611], [23.321366849, 42.671901635], [23.321418758, 42.672016321], [23.321497858, 42.67213385], [23.321512652, 42.672153845], [23.321512132, 42.672153409], [23.321261267, 42.672193635], [23.321343323, 42.672385658], [23.321586369, 42.672954411], [23.321855078, 42.673643068], [23.322130464, 42.674242671], [23.32219816, 42.674498979], [23.322166361, 42.6751828], [23.322125701, 42.675921758], [23.322045153, 42.676599136], [23.321897637, 42.677573758], [23.321774327, 42.678366862], [23.321752134, 42.67848521], [23.322922666, 42.678279903], [23.32400833, 42.678240868], [23.327119333, 42.678128958], [23.329373077, 42.677973385], [23.330934647, 42.677491843], [23.332691543, 42.676950033], [23.333211169, 42.676789778], [23.333703683, 42.676232661], [23.333172077, 42.676049577], [23.333172161, 42.676049502], [23.33302264, 42.675996582], [23.332931799, 42.675964507], [23.332906203, 42.675954495], [23.332870597, 42.675940567], [23.332539016, 42.675819926], [23.332465943, 42.675793338], [23.332430918, 42.675780596], [23.332396841, 42.675768196], [23.331509607, 42.675446497], [23.331469079, 42.675431904], [23.330989091, 42.675259046], [23.330220908, 42.674981537], [23.330037973, 42.674914028], [23.329495951, 42.674718742], [23.328980802, 42.674532352], [23.328361735, 42.674311241], [23.328215121, 42.67426655], [23.327835259, 42.674159139], [23.327746789, 42.674133654], [23.326731032, 42.673849033], [23.326651225, 42.673825817], [23.326338687, 42.673737883], [23.326258426, 42.673716242], [23.326176153, 42.673695454], [23.325620025, 42.673536461], [23.325420398, 42.673484221], [23.324835081, 42.673312053], [23.324077302, 42.673091239], [23.32372885, 42.672995025], [23.322923131, 42.672760328], [23.322470993, 42.672627799], [23.322298186, 42.672576565], [23.322106739, 42.672493662], [23.322066252, 42.672469935], [23.321987776, 42.672425304], [23.321877155, 42.672349452], [23.321822887, 42.672303547]]]]}}, {"type": "Feature", "properties": {"id": 33, "objectid": 68.0, "razshireni": "\"Зелена зона\"", "podzoni_20": null, "razshire_1": "\"Зелена зона\"", "num_2018": null, "shape_leng": 1536.52128023, "shape_area": 7346.5341929}, "geometry": {"type": "MultiPolygon", "coordinates": [[[[23.346590578, 42.696328496], [23.347225848, 42.696302697], [23.347234051, 42.696180089], [23.347015475, 42.696194254], [23.346999395, 42.696195296], [23.346567566, 42.696222587], [23.344594336, 42.696301213], [23.344144979, 42.696323708], [23.34231959, 42.696401669], [23.342007773, 42.696415702], [23.340054565, 42.696503136], [23.33930884, 42.696535748], [23.338016942, 42.696589476], [23.338015723, 42.696589538], [23.33801488, 42.696591848], [23.338019034, 42.696674616], [23.342336706, 42.696485659], [23.344606882, 42.696382036], [23.346590578, 42.696328496]]]]}}, {"type": "Feature", "properties": {"id": 34, "objectid": 70.0, "razshireni": null, "podzoni_20": null, "razshire_1": null, "num_2018": 0.0, "shape_leng": 405.1552171, "shape_area": 5671.12724599}, "geometry": {"type": "MultiPolygon", "coordinates": [[[[23.347225848, 42.696302697], [23.346590578, 42.696328496], [23.346638351, 42.6963428], [23.346658984, 42.69642039], [23.346916142, 42.697541831], [23.346934343, 42.697636201], [23.346931165, 42.697721351], [23.346895908, 42.697810678], [23.347247486, 42.69763848], [23.347241717, 42.697098012], [23.347221578, 42.696366515], [23.347225848, 42.696302697]]]]}}, {"type": "Feature", "properties": {"id": 35, "objectid": 73.0, "razshireni": null, "podzoni_20": null, "razshire_1": null, "num_2018": 0.0, "shape_leng": 1894.31863988, "shape_area": 10732.6693164}, "geometry": {"type": "MultiPolygon", "coordinates": [[[[23.311888004, 42.705636569], [23.311683449, 42.705651987], [23.311818014, 42.705885266], [23.311983473, 42.706178385], [23.312176845, 42.706515993], [23.312284148, 42.706705203], [23.312465774, 42.707058342], [23.312631056, 42.707444391], [23.312954111, 42.708236905], [23.313300796, 42.70905243], [23.313518564, 42.709560081], [23.313790915, 42.710199012], [23.313992874, 42.710671086], [23.314299378, 42.711388763], [23.314634137, 42.712166487], [23.31473177, 42.71241038], [23.31490672, 42.712669699], [23.315170215, 42.713062036], [23.315512709, 42.713565538], [23.315646731, 42.713495529], [23.31529507, 42.713027741], [23.315190408, 42.712859241], [23.314929878, 42.712475891], [23.314818303, 42.712274355], [23.314570275, 42.711676911], [23.314162643, 42.710755818], [23.31376609, 42.709829096], [23.313554954, 42.709304176], [23.313227031, 42.708537486], [23.312943074, 42.707848692], [23.31271774, 42.707334127], [23.312535258, 42.70690797], [23.312415591, 42.706651137], [23.312283449, 42.706414357], [23.311888004, 42.705636569]]]]}}, {"type": "Feature", "properties": {"id": 36, "objectid": 77.0, "razshireni": "\"Зелена зона\"", "podzoni_20": "Подзона 33", "razshire_1": "Предложение за разширение", "num_2018": 33.0, "shape_leng": 2736.28358409, "shape_area": 453228.923715}, "geometry": {"type": "MultiPolygon", "coordinates": [[[[23.31020568, 42.700202767], [23.310079271, 42.699757877], [23.30987281, 42.699076574], [23.309725834, 42.698542983], [23.308724761, 42.698705287], [23.307794104, 42.698856205], [23.306877337, 42.698988946], [23.305964721, 42.699132748], [23.304101313, 42.699420925], [23.30315002, 42.699572545], [23.303128584, 42.699499816], [23.303081015, 42.699507224], [23.302949751, 42.699527612], [23.303384624, 42.701042756], [23.303767778, 42.702354835], [23.304341284, 42.704284853], [23.304426453, 42.704575649], [23.304631726, 42.704948205], [23.304921117, 42.705296797], [23.305366619, 42.70562756], [23.305798452, 42.705879673], [23.305892338, 42.705934373], [23.306739319, 42.706356602], [23.30674178, 42.706357017], [23.306835076, 42.706373841], [23.307199484, 42.706424928], [23.30738076, 42.70641519], [23.307564866, 42.706406952], [23.307689778, 42.706402514], [23.307891392, 42.7063907], [23.308054893, 42.706379211], [23.308374422, 42.706356929], [23.308635241, 42.706338838], [23.308952572, 42.706316343], [23.309152223, 42.706302398], [23.309394032, 42.706285934], [23.309658335, 42.706267723], [23.309974956, 42.706245991], [23.310235513, 42.706227444], [23.310507359, 42.706209324], [23.310770751, 42.706189974], [23.311090571, 42.706167342], [23.311472177, 42.70614053], [23.311824201, 42.706115934], [23.312119193, 42.70609129], [23.312050268, 42.705955725], [23.311888004, 42.705636569], [23.311885803, 42.70563224], [23.311856137, 42.705564147], [23.311465867, 42.704792464], [23.311251048, 42.704041316], [23.310984, 42.703118442], [23.310716073, 42.702191228], [23.310419269, 42.701174028], [23.31020568, 42.700202767]]]]}}, {"type": "Feature", "properties": {"id": 37, "objectid": 78.0, "razshireni": "\"Зелена зона\"", "podzoni_20": "Подзона 32", "razshire_1": "Предложение за разширение", "num_2018": 32.0, "shape_leng": 2237.63477455, "shape_area": 322200.02287}, "geometry": {"type": "MultiPolygon", "coordinates": [[[[23.303150022, 42.699572544], [23.304101313, 42.699420925], [23.305964721, 42.699132748], [23.306877337, 42.698988946], [23.307794104, 42.698856205], [23.308724761, 42.698705287], [23.309725834, 42.698542983], [23.309726677, 42.698546047], [23.30972756, 42.698544245], [23.30951932, 42.697828438], [23.309212209, 42.69681725], [23.309048842, 42.69617924], [23.308843095, 42.69555007], [23.308791371, 42.695301812], [23.30879453, 42.69517327], [23.308815144, 42.694858559], [23.308897556, 42.69456598], [23.308921047, 42.694513486], [23.306701867, 42.693393291], [23.305304529, 42.692696054], [23.305263436, 42.692680734], [23.305094945, 42.692849831], [23.305031405, 42.692925818], [23.304552933, 42.693463712], [23.304311112, 42.693737127], [23.304170675, 42.693922517], [23.30385817, 42.694132832], [23.30335647, 42.694470055], [23.303204947, 42.694539891], [23.302908355, 42.694729024], [23.302758771, 42.694824543], [23.302723485, 42.694851017], [23.302696484, 42.694878421], [23.302661544, 42.69493375], [23.302648743, 42.694957355], [23.302625495, 42.695045653], [23.302601243, 42.69513855], [23.302541489, 42.695370289], [23.302252087, 42.696407052], [23.302225078, 42.696541877], [23.302306393, 42.696854277], [23.302355099, 42.696942657], [23.302578406, 42.697716782], [23.302601554, 42.697803987], [23.302731118, 42.698231377], [23.302766021, 42.698519753], [23.302793281, 42.698591866], [23.302824951, 42.698676448], [23.302954341, 42.699125803], [23.303068514, 42.6995088], [23.303068593, 42.699509153], [23.303081015, 42.699507224], [23.303128584, 42.699499816], [23.303150022, 42.699572544]]]]}}, {"type": "Feature", "properties": {"id": 38, "objectid": 80.0, "razshireni": "\"Зелена зона\"", "podzoni_20": "Подзона 35", "razshire_1": "Предложение за разширение", "num_2018": 35.0, "shape_leng": 3730.38315573, "shape_area": 580977.09436}, "geometry": {"type": "MultiPolygon", "coordinates": [[[[23.351847931, 42.686530879], [23.351763641, 42.686464619], [23.351458997, 42.686661113], [23.351471271, 42.686665529], [23.351519827, 42.686703538], [23.351569003, 42.68674591], [23.351627823, 42.686810707], [23.351640401, 42.686825653], [23.35166059, 42.686853996], [23.351679951, 42.686881173], [23.351692758, 42.686899151], [23.351708008, 42.686926505], [23.351723259, 42.686953858], [23.351726919, 42.686963115], [23.351755286, 42.687040835], [23.351754892, 42.687041053], [23.35174605, 42.687080417], [23.351731453, 42.68709811], [23.351724492, 42.687127072], [23.351587656, 42.688256478], [23.351431424, 42.689844424], [23.351307793, 42.691073013], [23.351250591, 42.691634843], [23.351217435, 42.691931133], [23.351257276, 42.69224868], [23.350119451, 42.692395278], [23.349567983, 42.692461409], [23.349069752, 42.692527273], [23.348534164, 42.692590072], [23.348232992, 42.692684522], [23.347421966, 42.692940795], [23.346300675, 42.693292233], [23.346225657, 42.693313979], [23.346283938, 42.693350437], [23.346398512, 42.69342211], [23.346496197, 42.693515939], [23.346588326, 42.693627053], [23.34666552, 42.693764037], [23.346713659, 42.693872844], [23.346756147, 42.693994437], [23.346861267, 42.694479794], [23.346961858, 42.694938605], [23.347094558, 42.69554442], [23.347157232, 42.695835449], [23.347189504, 42.695977368], [23.347235582, 42.696179991], [23.347234051, 42.696180089], [23.347225848, 42.696302697], [23.347221578, 42.696366515], [23.347241717, 42.697098012], [23.347249929, 42.697867309], [23.34722865, 42.698364564], [23.34728558, 42.698633065], [23.347372014, 42.699001009], [23.347471175, 42.699403112], [23.347652741, 42.699369429], [23.347921522, 42.699319855], [23.348119974, 42.699283421], [23.348402422, 42.699231563], [23.348654785, 42.699187357], [23.348865251, 42.699151189], [23.349028714, 42.699123441], [23.349142041, 42.699100499], [23.349213363, 42.699087294], [23.349290738, 42.699072969], [23.349386491, 42.69905524], [23.349490813, 42.699035947], [23.349637397, 42.699008847], [23.349702055, 42.698995723], [23.349795846, 42.698978589], [23.34989348, 42.698960753], [23.349962028, 42.69894823], [23.350129999, 42.698916569], [23.350245607, 42.698895212], [23.350376295, 42.698871275], [23.350584503, 42.69883314], [23.350765933, 42.698799894], [23.351067301, 42.698744044], [23.351398921, 42.698682109], [23.35159488, 42.698645511], [23.351967146, 42.698575653], [23.352125736, 42.698548684], [23.352338645, 42.698511085], [23.352425335, 42.698494176], [23.352620938, 42.698452918], [23.352883549, 42.698392568], [23.352994086, 42.69835689], [23.353110053, 42.698318612], [23.353205968, 42.698285047], [23.353281129, 42.698256616], [23.353356194, 42.698225879], [23.353438974, 42.698190515], [23.353510488, 42.698157662], [23.35357406, 42.698126731], [23.353635228, 42.698096157], [23.353709307, 42.698056045], [23.353793699, 42.698007954], [23.35386506, 42.697966784], [23.353946947, 42.697915515], [23.354012814, 42.697872558], [23.354057321, 42.697842456], [23.354094858, 42.69781279], [23.354124104, 42.697787193], [23.354198413, 42.697733448], [23.354262405, 42.697687165], [23.35428497, 42.697667358], [23.354345721, 42.697624673], [23.354409939, 42.697577116], [23.354458351, 42.697541262], [23.354504886, 42.697503623], [23.354536165, 42.697478092], [23.354574853, 42.697446513], [23.354617905, 42.697409216], [23.354699102, 42.697337811], [23.354770759, 42.697270693], [23.354831933, 42.697218249], [23.355001302, 42.696941125], [23.355132685, 42.696758784], [23.355351755, 42.696360447], [23.355389486, 42.696191697], [23.355420454, 42.696021558], [23.355435079, 42.695940927], [23.355439459, 42.695751093], [23.35545294, 42.69541542], [23.355460364, 42.695229436], [23.355454875, 42.695112047], [23.3554428, 42.694997664], [23.355422012, 42.694809417], [23.355409907, 42.694710144], [23.355405252, 42.694397868], [23.355401847, 42.694092055], [23.355401236, 42.694037084], [23.355429235, 42.693767066], [23.355453536, 42.693683267], [23.355465452, 42.693616935], [23.355473111, 42.693548046], [23.355478996, 42.693475107], [23.355476372, 42.693399377], [23.355470159, 42.693324524], [23.35546383, 42.693255943], [23.355466217, 42.693178998], [23.355468428, 42.693107798], [23.355470872, 42.693029071], [23.355472462, 42.692977847], [23.355468327, 42.692881137], [23.35546387, 42.692825937], [23.355459182, 42.692773202], [23.355450551, 42.692717339], [23.355440364, 42.692663211], [23.355424442, 42.692586396], [23.355411822, 42.692525515], [23.355400174, 42.692476287], [23.355388837, 42.692428367], [23.355329184, 42.692221031], [23.35525113, 42.692107322], [23.355127804, 42.6919142], [23.354931374, 42.691574193], [23.354728777, 42.691226787], [23.354515117, 42.69086172], [23.354398272, 42.690658555], [23.354263305, 42.690422728], [23.354188035, 42.690295684], [23.354082301, 42.690124937], [23.353940326, 42.689882122], [23.353834669, 42.689702519], [23.353746179, 42.689552096], [23.353659667, 42.689400221], [23.35356917, 42.689249381], [23.353492065, 42.68911657], [23.353389187, 42.688942717], [23.353303796, 42.68879809], [23.353116493, 42.688487176], [23.352990216, 42.688279849], [23.352882442, 42.688097977], [23.352810338, 42.687968609], [23.35271591, 42.687816712], [23.3525409, 42.687513508], [23.35247044, 42.68739371], [23.352367338, 42.687218414], [23.352296919, 42.687092718], [23.352214269, 42.686958478], [23.35212506, 42.686813583], [23.351955905, 42.686632559], [23.351847931, 42.686530879]]]]}}, {"type": "Feature", "properties": {"id": 39, "objectid": 81.0, "razshireni": "\"Зелена зона\"", "podzoni_20": "Подзона 26", "razshire_1": "Предложение за разширение", "num_2018": 26.0, "shape_leng": 2029.55437611, "shape_area": 188084.729281}, "geometry": {"type": "MultiPolygon", "coordinates": [[[[23.313787588, 42.657983571], [23.312902225, 42.657554941], [23.312884404, 42.657798884], [23.313046863, 42.658273499], [23.313243874, 42.658806166], [23.313248369, 42.658933975], [23.313266251, 42.65927107], [23.313332296, 42.660094398], [23.313400307, 42.660906061], [23.313489266, 42.661953819], [23.313559972, 42.662796324], [23.313600164, 42.663293159], [23.313651109, 42.663872867], [23.317067163, 42.664782176], [23.317537639, 42.664902561], [23.317524754, 42.664835142], [23.317524504, 42.664835113], [23.317524615, 42.664834417], [23.316464556, 42.659227776], [23.316000866, 42.658995363], [23.315849739, 42.658908293], [23.313787588, 42.657983571]]]]}}, {"type": "Feature", "properties": {"id": 40, "objectid": 82.0, "razshireni": "\"Зелена зона\"", "podzoni_20": "Подзона 27", "razshire_1": "Предложение за разширение", "num_2018": 27.0, "shape_leng": 2838.63768924, "shape_area": 476510.441621}, "geometry": {"type": "MultiPolygon", "coordinates": [[[[23.326389976, 42.67331101], [23.326289402, 42.673669179], [23.326275791, 42.673720925], [23.326338687, 42.673737883], [23.326651225, 42.673825817], [23.326731032, 42.673849033], [23.327746789, 42.674133654], [23.327835259, 42.674159139], [23.328215121, 42.67426655], [23.328361735, 42.674311241], [23.328980802, 42.674532352], [23.329495951, 42.674718742], [23.330037973, 42.674914028], [23.330220908, 42.674981537], [23.330989091, 42.675259046], [23.331469079, 42.675431904], [23.331509607, 42.675446497], [23.332396841, 42.675768196], [23.332430918, 42.675780596], [23.332465943, 42.675793338], [23.332539016, 42.675819926], [23.332870597, 42.675940567], [23.332906203, 42.675954495], [23.332931799, 42.675964507], [23.33302264, 42.675996582], [23.333172161, 42.676049502], [23.333172077, 42.676049577], [23.333703683, 42.676232661], [23.334074484, 42.676257571], [23.334263949, 42.674620847], [23.336167862, 42.672573449], [23.336167942, 42.672573411], [23.335914412, 42.67237867], [23.335654891, 42.672149811], [23.335357477, 42.671887534], [23.33506085, 42.671625948], [23.334724104, 42.671328979], [23.33444779, 42.671085301], [23.334196677, 42.670867854], [23.33387626, 42.670592091], [23.333546117, 42.670301304], [23.333288828, 42.67007363], [23.332946098, 42.669812707], [23.332818226, 42.66972765], [23.332679676, 42.669640506], [23.332453493, 42.669511762], [23.332204189, 42.669389463], [23.332139249, 42.669350501], [23.32948138, 42.668504444], [23.329024949, 42.668363326], [23.328662239, 42.668250465], [23.328136893, 42.668085556], [23.327834209, 42.667992741], [23.327767257, 42.66797221], [23.327765091, 42.667971167], [23.327068264, 42.667753666], [23.326868341, 42.667691666], [23.326562761, 42.6675969], [23.326098977, 42.668333077], [23.326217848, 42.669690319], [23.326368601, 42.671411554], [23.326504162, 42.672959261], [23.326389976, 42.67331101]]]]}}, {"type": "Feature", "properties": {"id": 41, "objectid": 83.0, "razshireni": "\"Зелена зона\"", "podzoni_20": "Подзона 26", "razshire_1": "Предложение за разширение", "num_2018": 26.0, "shape_leng": 2560.65432479, "shape_area": 311059.298917}, "geometry": {"type": "MultiPolygon", "coordinates": [[[[23.317537785, 42.664905768], [23.317067309, 42.664785383], [23.313651255, 42.663876073], [23.313651271, 42.663876252], [23.313686687, 42.664300993], [23.31371298, 42.664761698], [23.313694239, 42.665013899], [23.313666826, 42.665441605], [23.313756517, 42.666109941], [23.313853686, 42.666975239], [23.313949194, 42.667827], [23.313998109, 42.668367766], [23.313951581, 42.66865985], [23.313871493, 42.669073255], [23.313837234, 42.669233611], [23.313826215, 42.669427084], [23.313836016, 42.669796091], [23.313841405, 42.670171426], [23.313978139, 42.670184344], [23.320354501, 42.671947231], [23.32053343, 42.672045751], [23.320738972, 42.672111746], [23.320892874, 42.672161159], [23.320944516, 42.672177739], [23.321170222, 42.672191345], [23.321261413, 42.672196842], [23.321252077, 42.672177337], [23.320933806, 42.671512385], [23.320297366, 42.670368894], [23.319656298, 42.669227777], [23.31899626, 42.668063271], [23.318633804, 42.667430066], [23.318003276, 42.66631303], [23.317797503, 42.665939477], [23.317762524, 42.665869753], [23.317669739, 42.665595766], [23.317593109, 42.665217698], [23.317549356, 42.664966319], [23.317537785, 42.664905768]]]]}}, {"type": "Feature", "properties": {"id": 42, "objectid": 84.0, "razshireni": "\"Зелена зона\"", "podzoni_20": "Подзона 28", "razshire_1": "Предложение за разширение", "num_2018": 28.0, "shape_leng": 2936.87283663, "shape_area": 391127.753081}, "geometry": {"type": "MultiPolygon", "coordinates": [[[[23.326504162, 42.672959261], [23.326368601, 42.671411554], [23.326217848, 42.669690319], [23.326098977, 42.668333077], [23.326495432, 42.667703775], [23.320826923, 42.665953219], [23.317606183, 42.664980725], [23.31754921, 42.664963113], [23.317592963, 42.665214492], [23.317669593, 42.665592559], [23.317762378, 42.665866546], [23.317797357, 42.665936271], [23.318003129, 42.666309823], [23.318633658, 42.667426859], [23.318996114, 42.668060064], [23.319656152, 42.66922457], [23.32029722, 42.670365687], [23.320933659, 42.671509178], [23.321251931, 42.67217413], [23.321261267, 42.672193635], [23.321290475, 42.672188951], [23.321512652, 42.672153845], [23.321418758, 42.672016321], [23.321406658, 42.671989588], [23.321366849, 42.671901635], [23.321210125, 42.671557611], [23.321380014, 42.671524919], [23.321418316, 42.671623834], [23.321433604, 42.671672166], [23.321457324, 42.671747157], [23.321507347, 42.671858213], [23.321531627, 42.671910151], [23.321604534, 42.672053464], [23.321633029, 42.672098034], [23.321684098, 42.672155981], [23.321753493, 42.672229764], [23.321796658, 42.67227566], [23.321822887, 42.672303547], [23.321850021, 42.672326499], [23.321916572, 42.67237648], [23.321975983, 42.672417217], [23.322041839, 42.672456051], [23.322119751, 42.672499296], [23.322298186, 42.672576565], [23.322470993, 42.672627799], [23.322923131, 42.672760328], [23.32372885, 42.672995025], [23.324077302, 42.673091239], [23.324835081, 42.673312053], [23.325420398, 42.673484221], [23.325620025, 42.673536461], [23.326176153, 42.673695454], [23.326258426, 42.673716242], [23.326275791, 42.673720925], [23.326289402, 42.673669179], [23.326389976, 42.67331101], [23.326504162, 42.672959261]]]]}}, {"type": "Feature", "properties": {"id": 43, "objectid": 87.0, "razshireni": "\"Зелена зона\"", "podzoni_20": "Подзона 31", "razshire_1": "Предложение за разширение", "num_2018": 31.0, "shape_leng": 1230.56981334, "shape_area": 93330.4157617}, "geometry": {"type": "MultiPolygon", "coordinates": [[[[23.307235531, 42.690621378], [23.307224774, 42.69061581], [23.307047486, 42.690789031], [23.306705986, 42.691150147], [23.306375543, 42.691503368], [23.306298923, 42.691586088], [23.306108433, 42.691785427], [23.305777783, 42.692139498], [23.30562472, 42.692302543], [23.305287108, 42.692656976], [23.305263436, 42.692680734], [23.305304529, 42.692696054], [23.306701867, 42.693393291], [23.308921047, 42.694513486], [23.309000753, 42.694335366], [23.309251022, 42.693959066], [23.309737946, 42.693352953], [23.310098473, 42.692791442], [23.310204654, 42.692616945], [23.310152731, 42.69259553], [23.31008607, 42.692554223], [23.310052637, 42.692528906], [23.310007208, 42.692482643], [23.30997082, 42.692431051], [23.309942005, 42.692367361], [23.309927658, 42.692301883], [23.30992771, 42.692252053], [23.309934585, 42.692213139], [23.309964971, 42.692130804], [23.309996145, 42.692085659], [23.310016434, 42.692063761], [23.310007298, 42.692053505], [23.308893297, 42.691479525], [23.307235531, 42.690621378]]]]}}, {"type": "Feature", "properties": {"id": 44, "objectid": 88.0, "razshireni": "\"Зелена зона\"", "podzoni_20": "Подзона 29", "razshire_1": "Предложение за разширение", "num_2018": 29.0, "shape_leng": 2837.43370814, "shape_area": 380187.925728}, "geometry": {"type": "MultiPolygon", "coordinates": [[[[23.326495432, 42.667703775], [23.326562761, 42.6675969], [23.326636431, 42.667619747], [23.326804743, 42.667338616], [23.326922265, 42.667133953], [23.327070318, 42.666835455], [23.327129816, 42.666625696], [23.327179418, 42.666364086], [23.327164089, 42.66621701], [23.327101847, 42.665925014], [23.326982745, 42.665638288], [23.326832153, 42.665405442], [23.326654436, 42.665208647], [23.326120955, 42.664635552], [23.325396354, 42.663854644], [23.325255344, 42.663702009], [23.325252659, 42.663699104], [23.325252259, 42.663698949], [23.32503413, 42.663482564], [23.32457079, 42.663324873], [23.324279725, 42.66322581], [23.324224356, 42.663210384], [23.324215623, 42.663207951], [23.324194632, 42.663202103], [23.324128234, 42.663183603], [23.324044195, 42.663160189], [23.324014197, 42.66315183], [23.323972981, 42.663140348], [23.323937042, 42.663130335], [23.323914226, 42.663123475], [23.323822043, 42.663093071], [23.323714778, 42.663057692], [23.323596205, 42.663018584], [23.323509089, 42.66298985], [23.323403466, 42.662953895], [23.323259291, 42.662901965], [23.323200523, 42.662880797], [23.323065716, 42.66283224], [23.322959227, 42.662793883], [23.322881087, 42.662765738], [23.322784962, 42.662731114], [23.322691129, 42.662697315], [23.322676267, 42.662690813], [23.322544169, 42.662633021], [23.322463731, 42.66259783], [23.322409661, 42.662574174], [23.322343616, 42.662540815], [23.322301775, 42.662519681], [23.322236071, 42.662486494], [23.32216556, 42.662450879], [23.322081913, 42.662408629], [23.322012687, 42.662373662], [23.321959815, 42.662346956], [23.321945581, 42.662336534], [23.32189284, 42.662297916], [23.321830157, 42.662252018], [23.321777787, 42.66221367], [23.321731851, 42.662180035], [23.321679347, 42.662141589], [23.321642998, 42.662114973], [23.321604121, 42.662086506], [23.321559537, 42.66205386], [23.321519777, 42.662024746], [23.321499269, 42.662007731], [23.321474063, 42.661986062], [23.321448075, 42.661963721], [23.321397951, 42.661920631], [23.321353733, 42.661883767], [23.321325702, 42.661859869], [23.321310873, 42.66184541], [23.321292574, 42.661827571], [23.321268951, 42.661804541], [23.321221429, 42.661758208], [23.321187872, 42.661725493], [23.321135298, 42.661674237], [23.321090536, 42.661630587], [23.321034667, 42.661576127], [23.320993809, 42.661535977], [23.320923943, 42.661467642], [23.320851421, 42.661396707], [23.3207639, 42.661310734], [23.320714634, 42.661262298], [23.320674877, 42.66122321], [23.320643733, 42.661201315], [23.320610128, 42.66117769], [23.320576681, 42.661154177], [23.320520949, 42.661114997], [23.320461062, 42.661072896], [23.320391683, 42.66102412], [23.320317147, 42.660971817], [23.320282742, 42.660947534], [23.320230634, 42.660911742], [23.320183096, 42.660878732], [23.320141463, 42.660849821], [23.32007885, 42.660806264], [23.320041514, 42.660779265], [23.320006068, 42.660753175], [23.319938739, 42.660703618], [23.319875265, 42.660656897], [23.319838973, 42.660630184], [23.319811858, 42.660619277], [23.319750066, 42.660593764], [23.319696384, 42.660569545], [23.319644716, 42.660546234], [23.319597388, 42.660523307], [23.319509015, 42.660481918], [23.319469327, 42.660463106], [23.319440449, 42.660454388], [23.31938831, 42.660438648], [23.319313187, 42.660415969], [23.319261653, 42.660400412], [23.319213206, 42.660385785], [23.319176248, 42.660375919], [23.319176325, 42.660375686], [23.319090739, 42.660358946], [23.318950391, 42.660329873], [23.318688494, 42.660255388], [23.318553073, 42.660208461], [23.318311464, 42.660106689], [23.317467455, 42.659704158], [23.316563063, 42.659277149], [23.316562984, 42.65927711], [23.316464556, 42.659227776], [23.317524615, 42.664834417], [23.317524504, 42.664835113], [23.317524754, 42.664835142], [23.31754921, 42.664963113], [23.317606183, 42.664980725], [23.320826923, 42.665953219], [23.326495432, 42.667703775]]]]}}, {"type": "Feature", "properties": {"id": 45, "objectid": 89.0, "razshireni": "\"Зелена зона\"", "podzoni_20": "Подзона 26", "razshire_1": "Предложение за разширение", "num_2018": 26.0, "shape_leng": 418.866723703, "shape_area": 772.085031154}, "geometry": {"type": "MultiPolygon", "coordinates": [[[[23.313963386, 42.667982296], [23.313953449, 42.667997714], [23.313939897, 42.668008358], [23.313921825, 42.668014993], [23.313457821, 42.668075367], [23.312725272, 42.668170677], [23.312082667, 42.668252469], [23.311858447, 42.66827924], [23.311719075, 42.668292672], [23.311604547, 42.668303711], [23.311556088, 42.668308382], [23.311560561, 42.66834188], [23.311863258, 42.668310692], [23.311899784, 42.668306461], [23.311980103, 42.668296491], [23.312229884, 42.668265483], [23.312584945, 42.668221407], [23.312947823, 42.668176359], [23.31323792, 42.668140345], [23.313575914, 42.668098384], [23.313857679, 42.668063403], [23.313926736, 42.66805483], [23.313932621, 42.668054626], [23.31394738, 42.668060235], [23.313969012, 42.668077664], [23.313972514, 42.66808321], [23.313963386, 42.667982296]]]]}}, {"type": "Feature", "properties": {"id": 46, "objectid": 90.0, "razshireni": "\"Зелена зона\"", "podzoni_20": "Подзона 26", "razshire_1": "Предложение за разширение", "num_2018": 26.0, "shape_leng": 345.007507986, "shape_area": 1075.59710007}, "geometry": {"type": "MultiPolygon", "coordinates": [[[[23.313997963, 42.668364559], [23.313950869, 42.668367557], [23.313813693, 42.668407024], [23.313583248, 42.66851634], [23.313126632, 42.668732941], [23.313053738, 42.668767518], [23.312801277, 42.668778175], [23.312416036, 42.668794434], [23.312132028, 42.668806419], [23.312123607, 42.668861418], [23.312610223, 42.668843119], [23.313078716, 42.668825499], [23.313569905, 42.668593384], [23.313772496, 42.668497646], [23.313867814, 42.668452603], [23.313937049, 42.66844049], [23.313986987, 42.668433464], [23.313997963, 42.668364559]]]]}}, {"type": "Feature", "properties": {"id": 47, "objectid": 92.0, "razshireni": "\"Зелена зона\"", "podzoni_20": "Подзона 9", "razshire_1": "\"Зелена зона\"", "num_2018": 9.0, "shape_leng": 1729.57604966, "shape_area": 185788.881724}, "geometry": {"type": "MultiPolygon", "coordinates": [[[[23.310374348, 42.691912835], [23.310449243, 42.691912223], [23.310515067, 42.69192158], [23.310587755, 42.691940104], [23.31064575, 42.691962668], [23.310717949, 42.692000176], [23.310786166, 42.692037385], [23.310962558, 42.691821452], [23.311599597, 42.691328003], [23.312283958, 42.690780084], [23.312988663, 42.690230603], [23.313948331, 42.689468417], [23.313962735, 42.689457064], [23.313256802, 42.688954316], [23.312633716, 42.688526182], [23.311965321, 42.688068191], [23.311291107, 42.687609105], [23.310518463, 42.687072681], [23.310406413, 42.687001781], [23.310397481, 42.686996128], [23.310297549, 42.686945514], [23.308401387, 42.688452601], [23.308418355, 42.68843936], [23.306678326, 42.689816393], [23.306537241, 42.689931035], [23.306422284, 42.690035829], [23.306307326, 42.690140623], [23.306362661, 42.690169351], [23.30638554, 42.690181229], [23.306474067, 42.690227189], [23.307235531, 42.690621378], [23.307237027, 42.690622153], [23.308893297, 42.691479525], [23.310007298, 42.692053505], [23.310016434, 42.692063761], [23.310023972, 42.692055626], [23.310066553, 42.69202217], [23.310114211, 42.691992676], [23.310173432, 42.691964939], [23.310222006, 42.691947172], [23.310307091, 42.691921225], [23.310374348, 42.691912835]]]]}}, {"type": "Feature", "properties": {"id": 48, "objectid": 93.0, "razshireni": "\"Зелена зона\"", "podzoni_20": "Подзона 34", "razshire_1": "Предложение за разширение", "num_2018": 34.0, "shape_leng": 3357.61745262, "shape_area": 379279.463121}, "geometry": {"type": "MultiPolygon", "coordinates": [[[[23.299241253, 42.707364918], [23.299384095, 42.707286275], [23.299605264, 42.707176487], [23.300121126, 42.706924185], [23.300185173, 42.706892706], [23.300271321, 42.706844727], [23.300362966, 42.706801207], [23.300553913, 42.706717311], [23.300676102, 42.70667433], [23.300843838, 42.706624891], [23.300963417, 42.706590151], [23.301102276, 42.706554981], [23.301173148, 42.706540822], [23.301275013, 42.706522101], [23.301465304, 42.706493735], [23.301772643, 42.706455463], [23.301987707, 42.706430766], [23.302389325, 42.706379487], [23.302786699, 42.706331004], [23.303103342, 42.706291232], [23.303374387, 42.70625684], [23.303845722, 42.706198181], [23.304234374, 42.706149524], [23.304592561, 42.706104919], [23.304810037, 42.706077214], [23.304919186, 42.706069082], [23.305094595, 42.706066105], [23.305248125, 42.706069385], [23.305386058, 42.706078153], [23.305543413, 42.706094944], [23.305710365, 42.706118152], [23.305855251, 42.706151378], [23.305958393, 42.706180909], [23.306111018, 42.706220116], [23.306249363, 42.706253553], [23.306416633, 42.706295502], [23.306590152, 42.706331477], [23.306739319, 42.706356602], [23.305892547, 42.705934477], [23.305892567, 42.705934385], [23.305892129, 42.705934251], [23.305798452, 42.705879673], [23.305366619, 42.70562756], [23.304921117, 42.705296797], [23.304631726, 42.704948205], [23.304426453, 42.704575649], [23.304341284, 42.704284853], [23.303767778, 42.702354835], [23.303384624, 42.701042756], [23.302949751, 42.699527612], [23.302818487, 42.699548], [23.302692428, 42.69956619], [23.302337259, 42.699621263], [23.302153442, 42.699650013], [23.301394881, 42.699767544], [23.301257052, 42.699788521], [23.300485242, 42.699904242], [23.300130027, 42.698734749], [23.299729125, 42.697350601], [23.299370873, 42.697422436], [23.300070573, 42.699960789], [23.299309775, 42.700080254], [23.299170503, 42.700098498], [23.298410686, 42.700215909], [23.298235618, 42.700235762], [23.297862608, 42.700292266], [23.297548748, 42.700343963], [23.297157248, 42.700402068], [23.297179427, 42.700482183], [23.297253779, 42.700750763], [23.297409382, 42.701297072], [23.297513519, 42.70166268], [23.297672179, 42.702210797], [23.297796804, 42.702639026], [23.29790315, 42.703004371], [23.298022951, 42.703422536], [23.298158508, 42.703905649], [23.298229444, 42.704158458], [23.298301159, 42.704414039], [23.298340959, 42.70455588], [23.298438882, 42.70490486], [23.298482311, 42.705059631], [23.298566468, 42.705342706], [23.298626814, 42.705558659], [23.298787756, 42.70612465], [23.298858398, 42.706371642], [23.299018198, 42.706923897], [23.2990526, 42.707057579], [23.299056227, 42.707080311], [23.299166795, 42.707290166], [23.299168663, 42.707293711], [23.299169783, 42.707293165], [23.299241253, 42.707364918]]]]}}]}